Facility Type,Facility Name,Code,Region,Address,Suburb,State,Postcode,Latitude,Longitude,Is Active
Landfill,Suez Environmental (formerly SITA),F18,Metropolitan WRRG,274 Hallam Rd,Hampton Park,VIC,,-38.0540000000,145.2671611110,true
Landfill,Maddingley Brown Coal (ES90),F19,Grampians Central West WRRG,11 Tilleys Rd ,Maddingley,VIC,3340,-37.6970190000,144.4468790000,true
Landfill,Altona North Landfill (ES 26227),F20,Metropolitan WRRG,55 McArthurs Rd,Altona North,VIC,3018,-37.8402750000,144.8372880000,true
Landfill,Boral Landfill (ES 37288),F21,Metropolitan WRRG,1100-1152 Christies Rd,Ravenhall,VIC,3030,-37.7679760000,144.7383890000,true
Landfill,BTQ Group Sunbury (ES21321),F22,Metropolitan WRRG,500 Sunbury Rd,Bulla,VIC,3428,-37.6225600000,144.7897400000,true
Landfill,Clayton Regional Landfill (ES 20872),F23,Metropolitan WRRG,654-718 Clayton Rd,Clayton South,VIC,3169,-37.9467080000,145.1202960000,true
Landfill,Ernest Smith Contractors Landfill (ES 146),F24,Metropolitan WRRG,370-418 Old Dandenong Rd,Dingley Village,VIC,,-37.9669030000,145.1206120000,true
Landfill,Glen Landfill (ES 22749),F25,Metropolitan WRRG,75 Quarry Rd,Langwarrin,VIC,3910,-38.1416830000,145.1979300000,true
Landfill,Hanson Landfill - Woolert (ES41808),F26,Metropolitan WRRG,45 Bridge Inn Rd,Wollert,VIC,3750,-37.5941370000,145.0384850000,true
Landfill,Riddell Rd Landfill (ES465),F27,Metropolitan WRRG,"Lot 21 Riddell Rd,",Sunbury,VIC,3429,-37.5511530000,144.6846930000,true
Landfill,Suez Environmental Hallam Landfill (formerly SITA),F28,Metropolitan WRRG,274 Hallam Rd,Hampton Pk,VIC,3976,-38.0549000000,145.2730000000,true
Landfill,Suez Environmental Lyndhurst Landfill (formerly SITA),F29,Metropolitan WRRG,890 Taylors Rd,Dandenong South,VIC,3175,-38.0435810000,145.2318690000,true
Landfill,TPI Brooklyn Landfill (EX 304),F30,Metropolitan WRRG,42 Market Rd,Brooklyn,VIC,3012,-37.8044000000,144.8370000000,true
Landfill,TPI Deals Rd Landfill (ES 49849),F31,Metropolitan WRRG,Deals Rd,Clayton South,VIC,3169,-37.9567350000,145.1204430000,true
Landfill,TPI Fraser Rd Landfill (EM 28818),F32,Metropolitan WRRG,Fraser Rd,Clayton South,VIC,3169,-37.9470000000,145.1230000000,true
Landfill,TPI Heatherton Sands Landfill (ES 552),F33,Metropolitan WRRG,Cnr Heatherton Sands & Bunnys Lane,Moorabbin,VIC,3202,-37.9460000000,145.0900000000,true
Landfill,TPI Clarinda Landfill (ES45017),F34,Metropolitan WRRG,Carroll Road,Clarinda,VIC,3169,-37.9318440000,145.0919260000,true
Landfill,Werribee Landfill (ES 492),F35,Metropolitan WRRG,Wests Rd,Werribee,VIC,3030,-37.9401000000,144.5940000000,true
Landfill,Western Land Reclamation (ES26594),F36,Metropolitan WRRG,124 Jones Road,Brooklyn,VIC,3012,-37.8135290000,144.8340180000,true
Landfill,Bamganie Landfill P/L  (ES21208),F37,Grampians Central West WRRG,"Boonderoo, 616 Tall Tree Rd",Lethbridge,VIC,3332,-37.9668480000,144.1163990000,true
Landfill,Anglesea Landfill (HS539),F38,Barwon South West WRRG,"50 Coalmine Rd,",Anglesea,VIC,3230,-38.3843250000,144.2005277780,true
Landfill,Drysdale Landfill (HS1672),F39,Barwon South West WRRG,Becks Rd,Drysdale,VIC,3222,-38.1809330000,144.5985290000,true
Landfill,Castlemaine Landfill (ES24499),F40,Loddon Mallee WRRG,Sluicers Rd,Castlemaine,VIC,3450,-37.0774490000,144.1925310000,true
Landfill,Eaglehawk Landfill (ES397),F41,Loddon Mallee WRRG,191-193 Upper California Gully Rd,Eaglehawk,VIC,3556,-36.7275970000,144.2458340000,true
Landfill,Denyers Pit (ES 38707),F42,Loddon Mallee WRRG,190 Denyer Rd,Wandella,VIC,3579,-35.7625790000,143.7781500000,true
Landfill,Swan Hill Landfill (HS622),F43,Loddon Mallee WRRG,6859 Swan Hill - Sea Lake Road,Swan Hill,VIC,3585,-35.3499290000,143.5098470000,true
Landfill,Bairnsdale Landfill  (LS 52327),F44,Gippsland WRRG,200 Johnstons Rd,Forge Creek,VIC,3875,-37.8794210000,147.6264450000,true
Landfill,Grantville Landfill (ES37130),F45,Gippsland WRRG,"Grantville Gravel Reserve, Cnr Bass Hwy & Stanley Rd",Grantville,VIC,3984,-38.4227611111,145.5241194440,true
Landfill,Hyland Landfill (LS65990),F46,Gippsland WRRG,"Calignee South Road, Loy Yang",,VIC,,-38.2822560000,146.5609220000,true
Landfill,Kilmany Landfill (LS28),F47,Gippsland WRRG,Velore Rd,Kilmany,VIC,,-38.1008610000,146.9284060000,true
Landfill,Koonwarra Landfill (LS61989),F48,Gippsland WRRG,275 Koonwarra-Inverloch Rd,Koonwarra,VIC,3954,-38.5583290000,145.9222210000,true
Landfill,Lakes Entrance Landfill (LS2),F49,Gippsland WRRG,"Municipal Tip, Thorpes La",Lakes Entrance,VIC,3909,-37.8582940000,148.0067820000,true
Landfill,Maffra Landfill (LS 159),F50,Gippsland WRRG,Sellings Rd,Boisdale,VIC,3851,-37.9135194444,146.9867277780,true
Landfill,Alexandra landfill (ES31673),F51,Goulburn Valley WRRG,Mt Pleasant Rd,Alexandra,VIC,3714,-37.2092150000,145.7210710000,true
Landfill,Cobram Landfill (ES69514),F52,Goulburn Valley WRRG,Pye Rd (North Of Murray Valley Hwy),Cobram,VIC,,-35.9553370000,145.6958660000,true
Landfill,Cosgrove Landfill  (ES35898),F53,Goulburn Valley WRRG,200 Cosgrove-Lemnos Rd,Cosgrove,VIC,3631,-36.3475010000,145.5979900000,true
Landfill,Patho Landfill (ES24721),F54,Goulburn Valley WRRG,320 Davis Rd,Patho,VIC,3564,-36.0551340000,144.4352360000,true
Landfill,Dooen Landfill (ES353),F56,Grampians Central West WRRG,81 & 132 Ladlows Rd,Dooen,VIC,3401,-35.4763240000,143.6693110000,true
Landfill,Statewide Waste Regional Landfill (ES 39783),F57,Grampians Central West WRRG,492 Pomonal Rd (Stawell-Pomonal Rd),Stawell,VIC,3380,-37.0992840000,142.7359130000,true
Landfill,Smythesdale Landfill (ES27678),F58,Grampians Central West WRRG,1380 Glenelg Hwy,Smythesdale,VIC,3351,-37.6255440000,143.7012190000,true
Landfill,Mildura Landfill (HS1302),F59,Loddon Mallee WRRG,15 Scherger Drive/Ontario Avenue,Mildura,VIC,3500,-34.1850620000,142.1422690000,true
Landfill,Devil Bend Landfill (EM30017),F60,Metropolitan WRRG,Balnarring Rd,Tuerong,VIC,,-38.2946555556,145.0793555560,true
Landfill,Rye Landfill (ES453),F61,Metropolitan WRRG,"Ca 38B Parish Of Wannaeu, Cnr Browns Rd & Truemans Rd",Rye,VIC,,-38.3913720000,144.8563250000,true
Landfill,Tyabb Landfill (ES469),F62,Metropolitan WRRG,19 McKirdy's rd,Hasting,VIC,,-38.2599611111,145.2182361110,true
Landfill,Benalla Landfill (ES503),F63,North East WRRG,"Old Farnley Rd,",Benalla,VIC,3672,-36.5110805556,146.0012138890,true
Landfill,Bowser Landfill  (HS1349),F64,North East WRRG,5 Coleman Rd,Bowser,VIC,3678,-36.3181920000,146.3671650000,true
Landfill,Cobungra landfill (Mt. Hotham Resort) (ES299),F65,Gippsland WRRG,679 Great Alpine Rd,Cobungra,VIC,3898,-37.0833540000,147.3791560000,true
Landfill,Myrtleford Landfill (ES505),F66,North East WRRG,"6 Morrisons La,",Myrtleford,VIC,3737,-36.5432222222,146.7611805560,true
Landfill,Corangamite Regional Landfill  (ES38232),F67,Barwon South West WRRG,"Section 4, County Boundary & Forest Park Rds",Naroghid,VIC,,-38.2721770000,143.0513510000,true
Landfill,Hamilton Landfill (HS1483),F68,Barwon South West WRRG,68 Elijah St (3Km SW Hamilton),Hamilton,VIC,,-37.7465390000,141.9966300000,true
Landfill,Portland Landfill (HS766),F69,Barwon South West WRRG,210 Cape Nelson Road & CA 3G SEC 13 Parish of Portland,Portland,VIC,3305,-38.3714830000,141.5833760000,true
Landfill,Alvie Landfill (ES41784),F70,Barwon South West WRRG,"Corangamite Lake Rd,",Alvie,VIC,3249,-38.2511218417,143.5199062920,true
Landfill,Fyansford (Moltoni) Landfill (ES 22882),F71,Barwon South West WRRG,Lower Papermills Rd,Fyansford,VIC,,-38.1437900730,144.2991203200,true
Landfill,Heathcote Landfill (unlicensed),F72,Loddon Mallee WRRG,Golden Gully Rd,Heathcote,VIC,,-36.9353610000,144.6968220000,true
Landfill,Birchip Landfill (unlicensed),F73,Loddon Mallee WRRG,Birchip-Corack Rd (Cnr Mcfarlane Rd),Birchip,VIC,,-36.0124310000,142.9375830000,true
Landfill,Boort Landfill (unlicensed),F74,Loddon Mallee WRRG,Meering Rd,Boort,VIC,,-36.1042830000,143.7245180000,true
Landfill,Boundary Bend Landfill (unlicensed),F75,Loddon Mallee WRRG,Kooloonong Road,Boundary Bend,VIC,,-34.7494590000,143.1424340000,true
Landfill,Charlton Landfill (unlicensed),F76,Loddon Mallee WRRG,Charlton St Arnaud Rd,Charlton,VIC,,-36.2836100000,143.3343000000,true
Landfill,Culgoa Landfill (unlicensed),F77,Loddon Mallee WRRG,Cnr Culgoa-Labert Rd & Barry's Rd,Culgoa,VIC,,-35.7167900000,143.1334000000,true
Landfill,Donald Landfill (unlicensed),F78,Loddon Mallee WRRG,Depot Rd,Donald,VIC,,-36.3834700000,142.9525000000,true
Landfill,Inglewood Landfill (unlicensed),F79,Loddon Mallee WRRG,North St (Salisbury Rd),Inglewood,VIC,,-36.5646030000,143.8791890000,true
Landfill,Manangatang Landfill (unlicensed),F80,Loddon Mallee WRRG,Moondah Rd,Manangatang,VIC,,-35.0380260000,142.8970960000,true
Landfill,Nandaly Landfill (unlicensed) (CLOSED),F81,Loddon Mallee WRRG,Off Nyarrin - Nandaly Rd,Nandaly,VIC,,-35.3064960000,142.6985300000,true
Landfill,Newbridge Landfill (unlicensed),F82,Loddon Mallee WRRG,Tip Rd Off Tarnagulla Road (Newbridge Tarangulla Rd),Newbridge,VIC,,-36.7421640000,143.8932940000,true
Landfill,Piangil Landfill (unlicensed),F83,Loddon Mallee WRRG,Hayward Road,Piangil,VIC,,-35.0587388900,143.3094389000,true
Landfill,Pyramid Hill Landfill (unlicensed),F84,Loddon Mallee WRRG,Cemetery Rd,Pyramid Hill,VIC,,-36.0627060000,144.1454170000,true
Landfill,Robinvale Landfill (unlicensed),F85,Loddon Mallee WRRG,Robinvale - Sea Lake Rd,Robinvale,VIC,,-34.6807330000,142.7785850000,true
Landfill,Ultima Landfill (unlicensed),F86,Loddon Mallee WRRG,Sea Lake Rd,Ultima,VIC,,-35.4546180000,143.2806490000,true
Landfill,Wycheproof Landfill (unlicensed),F87,Loddon Mallee WRRG,Mackies Rd,Wycheproof,VIC,,-36.0624560000,143.2582100000,true
Landfill,Benambra Landfill (unlicensed),F88,Gippsland WRRG,Lake Omeo Road,Benambra,VIC,,-36.9439666667,147.6980000000,true
Landfill,Bendoc Landfill (unlicensed),F89,Gippsland WRRG,Clarkeville Rd,Bendoc,VIC,,-37.1530888889,148.8826750000,true
Landfill,Bonang Landfill (unlicensed),F90,Gippsland WRRG,16 Mailing Rd,Bonang,VIC,,-37.2023722222,148.7259111110,true
Landfill,Cann River Landfill (unlicensed),F91,Gippsland WRRG,Old Orbost Rd,Cann River,VIC,,-37.5699083333,149.1111944440,true
Landfill,Mallacoota Landfill,F92,Gippsland WRRG,Betka Rd,Mallacoota,VIC,3892,-37.5721138889,149.7458250000,true
Landfill,Orbost Landfill,F93,Gippsland WRRG,351 Bonang Rd,Orbost,VIC,3888,-37.6675000000,148.4809000000,true
Landfill,Rosedale Landfill (unlicensed),F94,Gippsland WRRG,Merton Vale rd,Rosedale,VIC,,-38.1878540000,146.8106890000,true
Landfill,Hard Hills Landfill (unlicensed),F95,Grampians Central West WRRG,Old Wedderburn Rd,St Arnaud,VIC,,-36.5902777800,143.3286944000,true
Landfill,Lah Landfill,F96,Grampians Central West WRRG,Henty Highway,Lah,VIC,,-36.1377638889,142.4151083330,true
Landfill,Marnoo Landfill (unlicensed) (hard waste only),F97,Grampians Central West WRRG,Auvergne Rd,Marnoo,VIC,,-36.6821340000,142.8620970000,true
Landfill,Patchewollock Landfill (unlicensed),F98,Grampians Central West WRRG,Hopetoun-Walpeup Rd,Patchewollock,VIC,,-35.3737890000,142.2058880000,true
Landfill,Sheep Hills Landfill,F99,Grampians Central West WRRG,Hausler Rd,Sheep Hills,VIC,,-36.3362666667,142.5767055560,true
Landfill,Tempy Landfill (unlicensed),F100,Grampians Central West WRRG,Sunraysia Hwy,Tempy,VIC,,-35.3443527778,142.4247666670,true
Landfill,Warracknabeal Landfill (unlicensed),F101,Grampians Central West WRRG,Golf Links Rd,Warracknabeal,VIC,,-36.2263490000,142.4077260000,true
Landfill,Yaapeet Landfill (unlicensed),F102,Grampians Central West WRRG,Off Rainbow - Yaapeet Rd,Yaapeet,VIC,,-35.7795860000,142.0428100000,true
Landfill,Murrayville Landfill (unlicensed),F103,Loddon Mallee WRRG,Cemetery Rd,Murrayville,VIC,,-35.2575090000,141.1782520000,true
Landfill,Ouyen Landfill (unlicensed),F104,Loddon Mallee WRRG,Boulka Rd,Ouyen,VIC,,-35.0882760000,142.3181630000,true
Landfill,Corryong Landfill  (unlicensed),F105,North East WRRG,Sugarloaf Rd,Corryong,VIC,,-36.2213388889,147.8917888890,true
Landfill,Casterton Landfill (unlicensed),F106,Barwon South West WRRG,Bahgallah Rd,Casterton,VIC,,-37.6170000000,141.3880000000,true
Landfill,Dartmoor Landfill (unlicensed),F107,Barwon South West WRRG,Bowds Lane (west of Dartmoor),Dartmoor,VIC,3304,-37.8997840000,141.2244200000,true
Landfill,Glenisla Landfill (unlicensed),F108,Barwon South West WRRG,off Old Henty Hwy Nth 2.3 km Sth of Hynes Rd,Glenisla,VIC,3314,-37.2424130000,142.1882340000,true
Landfill,Killarney Landfill (unlicensed),F109,Barwon South West WRRG,Badhams Lane,Killarney,VIC,,-38.3188600000,142.2969200000,true
Landfill,Nelson Landfill (unlicensed),F110,Barwon South West WRRG,North Dartmoor Rd,Nelson,VIC,3292,-38.0291630000,141.0093940000,true
Landfill,High Quality Quarry Products Pty Ltd,F586,Metropolitan WRRG,570 Sunbury Rd,Bulla,VIC,3428,-37.6075650000,144.7830370000,true
Landfill,A J Baxter Proprietary Limited,F589,Metropolitan WRRG,Victory RD CLAYTON SOUTH VIC 3169,Clayton South,VIC,3169,,,true
Landfill,Alpine Shire Council Porepunkah (ES102),F590,North East WRRG,Roberts Creek Rd.,Porepunkah,VIC,3740,,,true
Landfill,Calder Park Raceway Pty Ltd (Calder Park),F591,Metropolitan WRRG,377 Calder HWY CALDER PARK VIC 3037,Calder Park,VIC,3037,,,true
Landfill,Calleja Properties Pty Ltd (Keilor),F592,Metropolitan WRRG,Annandale RD KEILOR VIC 3036,Keilor,VIC,3036,,,true
Landfill,Epping Waste Disposal Enterprises,F594,Metropolitan WRRG,Lots 1 & 2 Childs Rd EPPING VIC 3076,Epping,VIC,3076,,,true
Landfill,Corio Landfill,F596,Barwon South West WRRG,1500 - 1580 BIDDLECOMBE AV CORIO VIC 3214,Corio,VIC,3214,,,true
Landfill,Bolinda Rd Landfill (Campbellfield),F597,Metropolitan WRRG,Bolinda RD CAMPBELLFIELD VIC 3061,Campbellfield,VIC,3061,,,true
Landfill,Wantirna South Landfill,F598,Metropolitan WRRG,Cnr Cathies Lane and High St,Wantirna South,VIC,3152,,,true
Landfill,Morwell Landfill,F599,Gippsland WRRG,PT CA 86B & CA 104A Parish of Maryvale MORWELL VIC 3840,Morwell,VIC,3840,,,true
Landfill,Newborough Landfill,F600,Gippsland WRRG,Yallourn Works Area Haunted Hills RD NEWBOROUGH VIC 3825,Newborough,VIC,3825,,,true
Landfill,Lyndcadle Proprietry Limited,F601,Metropolitan WRRG,185 Dandenong-Hastings RD DANDENONG SOUTH VIC 3175,Dandenong South,VIC,3175,,,true
Landfill,Lancefield Landfill,F602,Loddon Mallee WRRG,Baynton (Lot 16 LP208950) RD LANCEFIELD VIC 3435,Lancefield,VIC,3435,,,true
Landfill,Kilmore Landfill,F604,Goulburn Valley WRRG,Walders RD KILMORE VIC 3764,Kilmore,VIC,3764,,,true
Landfill,Seymour Landfill (ES58410) (aka Hildene Landfill),F605,Goulburn Valley WRRG,HUME AND HOVELL ROAD SEYMOUR VIC 3660,Seymour,VIC,3660,-37.0201500000,145.0793861110,true
Landfill,Fingal Landfill,F606,Metropolitan WRRG,280 Truemans Road Fingal,Tyabb,VIC,3913,,,true
Landfill,Violet Town Landfill,F608,Goulburn Valley WRRG,190 Mcdiarmids Rd,Violet Town,VIC,3669,,,true
Landfill,Transpacific Cleanaway Landfill (Market Road),F609,Metropolitan WRRG,52 - 60 MARKET RD BROOKLYN VIC 3012,Brooklyn,VIC,3012,,,true
Landfill,Transpacific Cleanaway Landfill (Jones Road),F610,Metropolitan WRRG,174 Old Geelong Rd (Jones Road),Brooklyn,VIC,3012,-37.8149970000,144.8325650000,true
Landfill,Longford Landfill,F611,Gippsland WRRG,746 Longford - Loch Sport Road,Longford,VIC,3851,-38.1765940000,147.1621700000,true
Landfill,Coldstream Landfill,F612,Metropolitan WRRG,Ingram RD COLDSTREAM VIC 3770,Coldstream,VIC,3770,,,true
Landfill,Healsville Landfill,F613,Metropolitan WRRG,Landfill Mt Riddel RD HEALESVILLE VIC 3777,Healesvilled,VIC,3777,,,true
Landfill,B.T.Q. Group Pty Ltd (Bulla),F614,Metropolitan WRRG,500 SUNBURY RD BULLA VIC 3428,Bulla,VIC,3428,-37.6223600000,144.7897340000,true
Landfill,Central Gippsland Region Water Corp,F615,Gippsland WRRG,1950 Longford-Loch Sport Road,Dutson,VIC,3851,-38.1963010000,147.2923150000,true
Landfill,Campbells Creek Landfill (unlicensed),F616,Loddon Mallee WRRG,Castlemaine Landfill Sluicers RD ,CAMPBELLS CREEK,VIC,3451,,,true
Landfill,Yarrambat Landfill,F618,Metropolitan WRRG,,Yarrambat,VIC,,,,true
Landfill,Trafalgar South Landfill,F619,Gippsland WRRG,200 Giles Rd,Trafalgar South,VIC,3824,-38.2294480000,146.1423140000,true
Landfill,East Gippsland Shire Council (Forge Creek) Landfill,F620,Gippsland WRRG,,Forge Creek,VIC,,,,true
Landfill,Boundary Bend Landfill (unlicensed) (CLOSED),F734,Loddon Mallee WRRG,Kooloonong Road,Boundary Bend,VIC,,,,true
Landfill,Nandaly Landfill (unlicensed) (CLOSED),F767,Loddon Mallee WRRG,Off Nyarrin - Nandaly Rd,Nandaly,VIC,,,,true
Reprocessor,Colac Cardboard & Paper Recovery,F7,Barwon South West WRRG,89 Wallace Street,Colac,VIC,3250,-38.3406000000,143.6022700000,true
Reprocessor,St Laurence Paper Services,F8,Barwon South West WRRG,342 Murray Street,Colac,VIC,3250,-38.3387800000,143.5781800000,true
Reprocessor,Tallow & Oil Traders,F10,Metropolitan WRRG,9-11 Maria St,LAVERTON NORTH,VIC,,-37.8379583300,144.7862056000,true
Reprocessor,Colmax,F141,Metropolitan WRRG,42 Stephen Rd,Dandenong South,VIC,,-38.0075333333,145.2120583330,true
Reprocessor,Sims Aluminium,F142,Metropolitan WRRG,17-19 Little Boundary Rd,Laverton North,VIC,3026,-37.8217010000,144.8214430000,true
Reprocessor,Sims Australian Refined Alloys,F143,Metropolitan WRRG,17-19 Little Boundary Rd,Laverton North,VIC,3026,-37.8217010000,144.8214430000,true
Reprocessor,DreamSafe Pty Ltd,F144,Metropolitan WRRG,14-18 Mills St,Cheltenham,VIC,,-37.9567361111,145.0741138890,true
Reprocessor,Orora Recycling,F145,Metropolitan WRRG,626 Heidelberg Rd,Alphington,VIC,,-37.7820500000,145.0261388890,true
Reprocessor,Calleja  (Altona North),F146,Metropolitan WRRG,20-30 Baldwin St,Altona North,VIC,,-37.8402833333,144.8182638890,true
Reprocessor,Saferoads,F147,Gippsland WRRG,39 Weerong Rd,Drouin,VIC,,-38.1194916667,145.8343555560,true
Reprocessor,Universal Recycling,F148,Metropolitan WRRG,"Lot 9, Berends Dve",DANDENONG SOUTH,VIC,,-38.0299660083,145.1994650500,true
Reprocessor,Macca's Demolition & Secondhand Building Materials,F149,Goulburn Valley WRRG,33 Mundarra Rd,Echuca,VIC,,-36.1427555556,144.7604777780,true
Reprocessor,Drouin Waste Recyclers & Waste Transfer Station,F150,Gippsland WRRG,81 Weerong Rd,Drouin,VIC,3878,-38.1224555556,145.8330388890,true
Reprocessor,G&J Crosby Contractors,F151,Gippsland WRRG,2 Dodd Crt,Traralgon,VIC,,-38.1839444444,146.5626277780,true
Reprocessor,Whelan's Earthmoving (Rupert St),F152,Gippsland WRRG,103-105 Rupert St (Bairnsdale - Earthmoving),Bairnsdale,VIC,,-37.8321750000,147.6213333330,true
Reprocessor,Whelan's Earthmoving (Johnstons Rd),F153,Gippsland WRRG,175 Johnstons Rd (Bairnsdale - Quarry),Bairnsdale,VIC,,-37.8730611111,147.6320194440,true
Reprocessor,Crowbar Demolitions,F154,Goulburn Valley WRRG,225 Grahamvale Rd,Shepparton,VIC,,-36.3431527778,145.4272888890,true
Reprocessor,Stawell Concrete Repository,F155,Grampians Central West WRRG,Mary St/ Haughton Street,Stawell,VIC,3380,-37.0515560000,142.7615280000,true
Reprocessor,Eastern Recycling & Waste Transfer Centre,F156,Metropolitan WRRG,30 Palmerston Rd (corner of Heatherdale Rd),Ringwood,VIC,3134,-37.8252000000,145.2170000000,true
Reprocessor,Konstruct Recycling,F157,Metropolitan WRRG,63-67 Garden Rd,Clayton,VIC,,-37.8244720000,145.2162700000,true
Reprocessor,Bernie Leen & Sons,F158,Barwon South West WRRG,9-15 Riversdale Rd,Newtown,VIC,,-38.1621638889,144.3403694440,true
Reprocessor,Local Mix Concrete,F159,Barwon South West WRRG,10 Hays Rd,Moolap,VIC,3221,-38.1575777778,144.4326138890,true
Reprocessor,Regional Recycle,F160,Barwon South West WRRG,Hamilton Hwy,Fyansford,VIC,,-38.1381916667,144.3214111110,true
Reprocessor,Allstone Quarries,F161,Loddon Mallee WRRG,Alexander St,Eaglehawk,VIC,,-36.7300472222,144.2470527780,true
Reprocessor,Hopley Recycling,F162,Loddon Mallee WRRG,6 Prospect Road/Heywood St,Bendigo,VIC,,-36.7366555556,144.3091916670,true
Reprocessor,Gippsland Concrete Recyclers (Matthews Quarries/Latrobe Valley Concrete),F163,Gippsland WRRG,1 Rocla Rd,Traralgon,VIC,,-38.1867583333,146.5666555560,true
Reprocessor,A1 Concrete Recycling,F164,Gippsland WRRG,50 Parinda Rd,Drouin,VIC,3878,-38.1212555556,145.8321694440,true
Reprocessor,Neerim Sth Quarry,F165,Gippsland WRRG,11 Sheffields Rd,Neerim South,VIC,3831,-38.0061444444,145.9636638890,true
Reprocessor,Traralgon Concrete Products,F166,Gippsland WRRG,14-28 Dunbar Road Traralgon - unsure of activity - needs more investigation,Traralgon,VIC,,-38.2025583333,146.5349777780,true
Reprocessor,Ballarat Concrete Recycling,F167,Grampians Central West WRRG,3 Tannery Lane,Ballarat,VIC,,-37.5796277778,143.8481805560,true
Reprocessor,Chris Bev Pty Ltd,F168,Grampians Central West WRRG,Wallis St,Delacombe,VIC,3356,-37.5737944444,143.8208222220,true
Reprocessor,David Eldridge Pty Ltd,F169,Grampians Central West WRRG,120 Whitelaw Ave,Delacombe,VIC,3356,-37.5786805556,143.8140388890,true
Reprocessor,Delaney AP & Co,F170,North East WRRG,280 Kiewa St,Albury,VIC,,-36.0921750000,146.9142333330,true
Reprocessor,Mansfield Construction Pty Ltd,F171,North East WRRG,169 Monkey Gully Rd,Mansfield,VIC,3722,-37.0806194444,146.0881888890,true
Reprocessor,Trevor Jackson Pty Ltd (Jackson's Earth Moving & Concrete Recyclers),F172,North East WRRG,Jenkinson Road,Wodonga,VIC,,-36.1326000000,146.9031000000,true
Reprocessor,Alex Fraser (Epping),F173,Metropolitan WRRG,445-475 Cooper Street,Epping,VIC,,-37.6521222222,144.9807527780,true
Reprocessor,Alex Fraser (Clarinda),F174,Metropolitan WRRG,275-315 Kingston Road,Clarinda,VIC,,-37.9558611111,145.1101777780,true
Reprocessor,Alex Fraser (Laverton North),F175,Metropolitan WRRG,9-19 Alex Fraser Drive,Laverton North,VIC,3026,-37.8327000000,144.7734861110,true
Reprocessor,Altona North Recycling (Masalovski Group),F176,Metropolitan WRRG,"55 Mcarthurs Rd, Altona North",Altona North,VIC,,-37.8397138889,144.8375722220,true
Reprocessor,Apex Waste Collection,F177,Metropolitan WRRG,4 Sara Grove,Tottenham,VIC,3012,-37.7993722222,144.8500416670,true
Reprocessor,Beaver Bricks,F178,Metropolitan WRRG,199 Liverpool Rd,Kilsyth,VIC,,-37.8195527778,145.3209750000,true
Reprocessor,Boral Limited  (Deer Park),F179,Metropolitan WRRG,Riding Boundary rd,Deer Park,VIC,,-37.7804527778,144.7270777780,true
Reprocessor,City Circle Demolitions (Brooklyn),F180,Metropolitan WRRG,Jones Rd (end),Brooklyn,VIC,,-37.8098944444,144.8336916670,true
Reprocessor,City Circle Demolitions (Dandenong),F181,Metropolitan WRRG,128 Ordish Rd,Dandenong,VIC,,-38.0287410000,145.1912980000,true
Reprocessor,Clayton Brick & Timber Salvage/Diver Demolitions,F182,Metropolitan WRRG,23 Murdock St,Clayton South,VIC,,-37.9336916667,145.1209250000,true
Reprocessor,Delta Group,F183,Metropolitan WRRG,473 Sommerville Rd,Sunshine,VIC,,-37.8091694444,144.8365666670,true
Reprocessor,Ecobricks (Sunshine),F184,Metropolitan WRRG,473 Sommerville Rd,Sunshine,VIC,,-37.8080055556,144.8351000000,true
Reprocessor,Ecobricks (Clayton),F185,Metropolitan WRRG,60 Garden Rd,Clayton,VIC,,-37.9213500000,145.1467611110,true
Reprocessor,Melbourne Recycling Centres Pty Ltd,F186,Metropolitan WRRG,372 Dynon Rd,West Melbourne,VIC,,-37.8015555556,144.9184000000,true
Reprocessor,Paddy's Bricks,F187,Metropolitan WRRG,240 Kensington Rd,West Melbourne,VIC,,-37.8006000000,144.9161305560,true
Reprocessor,Suez Environmental (formerly SITA) - Epping,F188,Metropolitan WRRG,274 Hallam Rd,Hampton Park,VIC,,-38.0617166667,145.2682000000,true
Reprocessor,Sunshine Groupe,F189,Metropolitan WRRG,Lot 1 Bunting Rd,Brooklyn,VIC,,-37.8118250000,144.8365472220,true
Reprocessor,Chadwick Demolition P/L,F190,Metropolitan WRRG,9 Henry Wilson Dv,Rosebud,VIC,,-38.3836944444,144.8862500000,true
Reprocessor,Suez Environmental (formerly SITA) - Lara,F192,Barwon South West WRRG,35 Heales Rd,Lara,VIC,,-38.0524777778,144.3866944440,true
Reprocessor,Midland Environmental Services,F193,Loddon Mallee WRRG,10 Dryden Court,Woodend North,VIC,,-37.3257583333,144.5390861110,true
Reprocessor,Latrobe Valley Recyclers (Morwell),F195,Gippsland WRRG,55 Madden St,Morwell,VIC,,-38.2309027778,146.3888416670,true
Reprocessor,Latrobe Valley Recyclers  (Traralgon),F196,Gippsland WRRG,70 Eastern Rd,Traralgon,VIC,,-38.1809138889,146.5655888890,true
Reprocessor,Bairnsdale Scrap Metals Pty Ltd,F197,Gippsland WRRG,14 Kyle St,Bairnsdale,VIC,,-37.8435944444,147.6110694440,true
Reprocessor,Ellwaste Echuca,F199,Goulburn Valley WRRG,11-13 Reliance Court,Echuca,VIC,3564,-36.1484100000,144.7634000000,true
Reprocessor,Onesteel Recycling (trading as Ace Scrap Metal & Steel),F200,Grampians Central West WRRG,5 Coronet St,Wendouree,VIC,3355,-37.5271590000,143.8474030000,true
Reprocessor,Sims Metal (Albury),F201,North East WRRG,445 Panmure Rd,Albury,VIC,,-36.0956555556,146.9186111110,true
Reprocessor,Transpacific Industries Group Ltd,F211,Metropolitan WRRG,Lot 1 Grange Rd,Dingley Village,VIC,,-37.9648722222,145.1201666670,true
Reprocessor,Southern Cross Recycling,F212,Metropolitan WRRG,326 Settlement Rd,Thomastown,VIC,,-37.6887250000,145.0240277780,true
Reprocessor,Boral Cement,F213,Barwon South West WRRG,130 reservoir Rd,Mt Duneed,VIC,,-38.2247527778,144.2681444440,true
Reprocessor,GDP Industries,F214,Barwon South West WRRG,6-8 Baxter Rd,North Geelong,VIC,,-38.1246750000,144.3500000000,true
Reprocessor,GT Recycling,F215,Barwon South West WRRG,100 Point Henry rd,Moolap,VIC,,-38.1603472222,144.4304305560,true
Reprocessor,Western Gypsum,F216,Grampians Central West WRRG,2265 Pitfield Rd (alt address Lismore-Pitfield rd?),Cape Clear,VIC,,-37.8128000000,143.5714722220,true
Reprocessor,Norske Skog Paper Mills,F217,North East WRRG,Hume Hwy,Albury,VIC,2641,-35.9957305556,146.9856000000,true
Reprocessor,Visy Glass,F219,Metropolitan WRRG,46-48 Dohertys Road,Laverton North,VIC,,-37.8288222222,144.8063777780,true
Reprocessor,CMA Corporation Ltd,F220,Metropolitan WRRG,5-11 Reo Cresent,Campbellfield,VIC,,-37.6471388889,144.9383305560,true
Reprocessor,MRI,F221,Metropolitan WRRG,20-24 Dennis Street,Campbellfield,VIC,3061,-37.6455680000,144.9413200000,true
Reprocessor,Encore Tissues,F225,Metropolitan WRRG,37-41 Gilbertson Rd,Laverton,VIC,,-37.8229250000,144.7945750000,true
Reprocessor,Energymasta Australia,F226,Metropolitan WRRG,9 Dissik St,Cheltenham,VIC,,-37.9532166667,145.0710361110,true
Reprocessor,Enviroflex P/L,F227,Metropolitan WRRG,1 Forbes Close,Knoxfield,VIC,,-37.8973944444,145.2527805560,true
Reprocessor,Huhtamaki,F228,Metropolitan WRRG,77 Raglan St,Preston,VIC,,-37.7519694444,145.0230083330,true
Reprocessor,Insulfluf Australia,F229,Metropolitan WRRG,13 Union Rd,Dandenong South,VIC,,-38.0078500000,145.2056222220,true
Reprocessor,Visy,F230,Metropolitan WRRG,13 Reo Cresent,Coolaroo,VIC,,-37.6476333333,144.9360583330,true
Reprocessor,Ariel Industries,F231,Metropolitan WRRG,26 Kembla St,Cheltenham,VIC,,-37.9749805556,145.0850638890,true
Reprocessor,Astron Plastics,F232,Metropolitan WRRG,1-3 McQuire St,Cheltenham,VIC,,-37.9527861111,145.0751222220,true
Reprocessor,Australian Composite Technologies,F233,Metropolitan WRRG,23-27 Freight Drive,Somerton,VIC,3062,-37.6420694444,144.9633472220,true
Reprocessor,Close the Loop,F234,Metropolitan WRRG,208 Hume Hwy,Somerton,VIC,,-37.6245833333,144.9509833330,true
Reprocessor,EzyClad P/L,F235,Metropolitan WRRG,9-11 Brooklyn Court,Campbellfield,VIC,,-37.6796277778,144.9582583330,true
Reprocessor,FoamEx,F236,Metropolitan WRRG,31-33 Gatwick St,Bayswater Nth,VIC,,-37.8181944444,145.2970666670,true
Reprocessor,General Polymers,F237,Metropolitan WRRG,185-195 Frankston Dandenong Rd,Dandenong,VIC,,-38.0182083333,145.2167027780,true
Reprocessor,Megara,F238,Metropolitan WRRG,908-920 Mountain Hwy,Bayswater Nth,VIC,,-37.8383138889,145.2844194440,true
Reprocessor,Replas,F239,Metropolitan WRRG,27 Titan Dve,Carrum Downs,VIC,,-38.1012972222,145.1667972220,true
Reprocessor,Tapex,F240,Metropolitan WRRG,47 Castro Way,Derrimut,VIC,,-37.7912166667,144.7775666670,true
Reprocessor,Unipod,F241,Metropolitan WRRG,40 Buys Crt,Derrimut,VIC,,-37.7987083333,144.7553083330,true
Reprocessor,CN Ruggiero,F242,Metropolitan WRRG,552 Geelong Rd,Brooklyn,VIC,,-37.8147472222,144.8547555560,true
Reprocessor,G P Embelton & Co Pty Ltd,F243,Metropolitan WRRG,147 Bakers Rd,Coburg,VIC,,-37.7263666667,144.9519222220,true
Reprocessor,Tyre Crumb Australia,F244,Metropolitan WRRG,"Building 17, 160 Camp Rd (enter from Northcorp Blvd)",Broadmeadows,VIC,,-37.6799480000,144.9433500000,true
Reprocessor,Tyrecycle,F245,Metropolitan WRRG,30-56 Encore Ave,Somerton,VIC,,-37.6344638889,144.9558055560,true
Reprocessor,Matress Gator Pty Ltd,F246,Metropolitan WRRG,"Factory 2, 899 Mountain Hwy",Bayswater,VIC,3152,-37.8365472222,145.2825638890,true
Reprocessor,Repeat Plastics Australia,F247,Grampians Central West WRRG,50 Elsworth St,Ballarat,VIC,3350,-37.5832250000,143.8737583330,true
Reprocessor,IR Composite (Integrated Recycling),F248,Loddon Mallee WRRG,316 Etiwanda Ave,Mildura,VIC,,-34.1966194444,142.1694722220,true
Reprocessor,Castlegate James,F249,Grampians Central West WRRG,4 Wiltshire Lane,Delacombe,VIC,,-37.5705638889,143.8092777780,true
Reprocessor,Branin,F250,Metropolitan WRRG,7 Apoinga St,Dandenong South,VIC,,-38.0356777778,145.2057555560,true
Reprocessor,Fareshare,F251,Metropolitan WRRG,1 Thompson St,Abbotsford,VIC,3067,-37.8104305556,145.0030138890,true
Reprocessor,Food Bank,F252,Metropolitan WRRG,4/2 Somerville Rd,Yarraville,VIC,3013,-37.8148027778,144.9026972220,true
Reprocessor,Peerless Holdings Pty Ltd,F253,Metropolitan WRRG,21 Evans St,Braybrook,VIC,,-37.7774317167,144.8631251830,true
Reprocessor,Second Bite,F254,Metropolitan WRRG,73 McClure Rd,Kensington,VIC,3031,-37.7991777778,144.9309666670,true
Reprocessor,AD & HM Robertson,F255,Barwon South West WRRG,1170 Surf Coast Highway,Mt Duneed,VIC,3217,-38.2782520000,144.3263790000,true
Reprocessor,Bellarine Trees,F256,Barwon South West WRRG,30 Point Henry Rd,Moolap,VIC,3221,-38.1656388889,144.4246000000,true
Reprocessor,Epsom Environmental Services,F257,Loddon Mallee WRRG,452 Epsom-Barnadown Rd,Epsom,VIC,,-36.6892350000,144.3566450000,true
Reprocessor,Pine Gro  (Morwell),F258,Gippsland WRRG,Monash Way,Morwell,VIC,,-38.2634305556,146.4207972220,true
Reprocessor,Western Composting Technology Shepparton (Corio Waste),F259,Goulburn Valley WRRG,165 Daldy Rd,Shepparton,VIC,3630,-36.3252900000,145.3771000000,true
Reprocessor,Calleja Transport (Bacchus Marsh),F260,Grampians Central West WRRG,East Maddingley Rd,Bacchus Marsh,VIC,,-37.7062305556,144.4392305560,true
Reprocessor,Garden Recycling Centre,F261,Grampians Central West WRRG,154 Learmonth St,Alfredton,VIC,,-37.5671666667,143.8105972220,true
Reprocessor,Mornington Peninsula Shire Council,F262,Metropolitan WRRG,"Ca 38B Parish Of Wannaeu, Cnr Browns Rd & Truemans Rd",Fingal,VIC,,-38.3946760000,144.8535000000,true
Reprocessor,Australian Native Landscapes,F264,Metropolitan WRRG,527 Maroondah Hwy,Coldstream,VIC,,-37.7352027778,145.3701194440,true
Reprocessor,Enviromix,F265,Metropolitan WRRG,"Lot 2, Grange Road",DINGLEY VILLAGE,VIC,,-37.9629320000,145.1181070000,true
Reprocessor,Garden State Mulching Services,F266,Metropolitan WRRG,George Street (enter from High Street Road),Wantirna South,VIC,,-37.8822570000,145.2126500000,true
Reprocessor,Natural Recovery Systems,F267,Metropolitan WRRG,15 Berends Dve,DANDENONG,VIC,3175,-38.0294410000,145.1980000000,true
Reprocessor,Pine Gro so what is this then?,F268,Metropolitan WRRG,Riding-Boundary Rd,Deer Park,VIC,3023,-37.7790560000,144.7274000000,true
Reprocessor,Suez Environmental (formerly SITA) - Hampton Park,F269,Metropolitan WRRG,480 Cooper Street,EPPING,VIC,3076,-37.6454110000,144.9780490000,true
Reprocessor,SureCrop Australia,F270,Metropolitan WRRG,114 Old Emerald Rd,Monbulk,VIC,,-37.8669111111,145.4256305560,true
Reprocessor,The Green Centre,F271,Metropolitan WRRG,Stadium Dr,KEILOR PARK,VIC,,-37.7131270000,144.8547120000,true
Reprocessor,Barro Group ,F273,Barwon South West WRRG,Dandos Road,Pt Wilson,VIC,3212,-38.0675000000,144.4809000000,true
Reprocessor,Pine Gro (Moe),F274,Gippsland WRRG,31 Walhalla Rd,Moe,VIC,,-38.1612638889,146.2604250000,true
Reprocessor,Pine Gro  (Traralgon),F275,Gippsland WRRG,Rocla Rd,Traralgon,VIC,,-38.1852500000,146.5682861110,true
Reprocessor,Biogro,F276,Metropolitan WRRG,80-82 Ordish Rd,Dandenong South,VIC,,-38.0237777778,145.1916416670,true
Reprocessor,Dutson Downs,F277,Gippsland WRRG,Lochsport Rd,Longford,VIC,,-38.2080944444,147.2925194440,true
Reprocessor,Greenchip,F278,North East WRRG,Whytes Rd,Bandiana ((Wodonga),VIC,,-36.1540611111,146.9537222220,true
Reprocessor,Camperdown Compost Co,F279,Barwon South West WRRG,445 Sandys Lane,Bookaar,VIC,3260,-38.1759380000,143.0898470000,true
Reprocessor,Rivcow,F280,Loddon Mallee WRRG,Seven Mile Rd,Yuengroon via Charlton,VIC,,-36.3608777778,143.3998805560,true
Reprocessor,Scatoplus,F281,Loddon Mallee WRRG,1477 Yorkshire Rd,Newbridge,VIC,,-36.7083444444,143.9593111110,true
Reprocessor,Eco Logs,F282,Goulburn Valley WRRG,13-15 Darcy St,Seymour,VIC,3660,-37.0529583333,145.1706472220,true
Reprocessor,DR Henderson (Monsbent),F283,North East WRRG,Cr Yarrawonga Rd & Hume Hwy,Winton,VIC,,-36.5248277778,146.0408638890,true
Reprocessor,Bark King Group Pty Ltd,F284,Metropolitan WRRG,54 Fussell Road,Montrose,VIC,,-37.8215043833,145.3256143920,true
Reprocessor,Just Old Flooring,F285,Metropolitan WRRG,28 Blaxland Ave,Thomastown,VIC,,-37.6896333333,144.9914000000,true
Reprocessor,Mossrock,F286,Metropolitan WRRG,480 Cooper Street,EPPING,VIC,,-37.6458570000,144.9780070000,true
Reprocessor,Spotswood Holdings,F287,Metropolitan WRRG,6 King St,Yarra Glen,VIC,,-37.6553472222,145.3594888890,true
Reprocessor,Waste Smart / Waste Converters,F288,Metropolitan WRRG,185 Westernport Hwy,Dandenong South,VIC,,-38.0534000000,145.2420000000,true
Reprocessor,Andpak (Aust) Pty Ltd,F721,Loddon Mallee WRRG,,Irymple,VIC,,,,true
Reprocessor,Aussie Compost Company,F722,Gippsland WRRG,,Pound Creek,VIC,,,,true
Reprocessor,Australian New Energy,F724,Barwon South West WRRG,42-50 Point Henry Road,Moolap,VIC,,,,true
Reprocessor,Australian Paper  (Maryvale Mill),F725,Gippsland WRRG,,Maryvale,VIC,,,,true
Reprocessor,Axis Worx,F726,Grampians Central West WRRG,134 Golf Course Rd,Horsham,VIC,,,,true
Reprocessor,Ballarat Regional Industries,F727,Grampians Central West WRRG,6 Neerim Cres,Wendouree,VIC,,,,true
Reprocessor,Biomix,F732,Goulburn Valley WRRG,980 Two Tree Road,Burramboot,VIC,3559,-36.4990190000,144.9231320000,true
Reprocessor,Brendan O'Keefe - demolition and recycling,F735,Goulburn Valley WRRG,Shepparton,Greater Shepparton (C),VIC,,,,true
Reprocessor,C&D Recycling Lara,F736,Barwon South West WRRG,300-400 Broderick Road,Lara,VIC,,,,true
Reprocessor,Carl Brown ,F739,Goulburn Valley WRRG,3196 Heathcote Rochester Rd,Colbinabbin ,VIC,,,,true
Reprocessor,Drums Go Round,F747,Goulburn Valley WRRG,6 Eddy Ave,Moama,VIC,,,,true
Reprocessor,Enviro 2100,F749,Goulburn Valley WRRG,578 Drysdale Road,Euroa,VIC,,,,true
Reprocessor,Foott Waste  ,F751,Goulburn Valley WRRG,Shepparton,Greater Shepparton (C),VIC,,,,true
Reprocessor,Gardners Ag Services,F752,Goulburn Valley WRRG,Katandra,Greater Shepparton (C),VIC,,,,true
Reprocessor,Gippsland Renewable Energy,F753,Gippsland WRRG,,Traralgon,VIC,,,,true
Reprocessor,Goulburn River Trout,F754,Goulburn Valley WRRG,Alexandra,Murrindindi (S),VIC,,,,true
Reprocessor,Mallacoota WasteWater Treatment Plant,F759,Gippsland WRRG,Mallacoota,East Gippsland (S),VIC,,,,true
Reprocessor,Newtecpoly ,F768,Goulburn Valley WRRG,11 Bowlan Street,Moama,VIC,,,,true
Reprocessor,Norstar Steel Recyclers (Bayswater North),F769,Metropolitan WRRG,160-162 Colchester Rd,Bayswater North,VIC,,,,true
Reprocessor,Norstar Steel Recyclers  (Dandenong South),F770,Metropolitan WRRG,37 Redgum Drive,Dandenong South,VIC,,,,true
Reprocessor,Norstar Steel Recyclers  (Laverton North),F771,Metropolitan WRRG,191-205 Dohertys Rd,Laverton North,VIC,,,,true
Reprocessor,Norstar Steel Recyclers  (Reservoir),F772,Metropolitan WRRG,41-51 Banbury Rd,Reservoir,VIC,,,,true
Reprocessor,Onesteel (Brooklyn),F773,Metropolitan WRRG,760 Old Geelong Rd,Brooklyn,VIC,,,,true
Reprocessor,Onesteel (Coolaroo),F774,Metropolitan WRRG,82A Maffra St,Coolaroo,VIC,,,,true
Reprocessor,Onesteel (Dandenong),F775,Metropolitan WRRG,21 Elliot St,Dandenong,VIC,,,,true
Reprocessor,OneSteel (Eaglehawk),F776,Loddon Mallee WRRG,6 Baldcock Rd,Eaglehawk,VIC,,,,true
Reprocessor,Onesteel (Laverton North),F777,Metropolitan WRRG,62 Fitzgerald rd,Laverton North,VIC,,,,true
Reprocessor,Paper Freight Australia,F781,Grampians Central West WRRG,28 Grandlee Drive,Wendouree,VIC,,,,true
Reprocessor,Pental Soaps ,F782,Goulburn Valley WRRG,48 Drummond Road,Shepparton,VIC,,,,true
Reprocessor,Plastic Forests Pty Ltd,F784,Goulburn Valley WRRG,Strathmerton,Greater Shepparton (C),VIC,,,,true
Reprocessor,Potters Industries,F785,Metropolitan WRRG,100-102 Boundary Rd,Laverton,VIC,,,,true
Reprocessor,Resource Resolution,F787,Goulburn Valley WRRG,,Girgarre,VIC,,,,true
Reprocessor,RPM Pipe,F790,Goulburn Valley WRRG,Lancaster ,Greater Shepparton (C),VIC,,,,true
Reprocessor,Scatoplus (Bridgewater Compost),F791,Loddon Mallee WRRG,1477 Yorkshire Rd,Newbridge,VIC,,,,true
Reprocessor,Seymour Shavings and Sawdust Supplies,F792,Goulburn Valley WRRG,Elizabeth St,Seymour,VIC,,,,true
Reprocessor,Shoalhaven Recycling & Waste Services,F793,North East WRRG,10 Victa Way,Bombaderry,VIC,,,,true
Reprocessor,Sims Metal (Broadmeadows),F794,Metropolitan WRRG,1904 Hume Hwy,Broadmeadows,VIC,,,,true
Reprocessor,Sims Metal (Brooklyn),F795,Metropolitan WRRG,44-60 Mcdonalds Rd,Brooklyn,VIC,,,,true
Reprocessor,Sims Metal (Noble Park),F796,Metropolitan WRRG,442 Princes Hwy,Noble Park,VIC,,,,true
Reprocessor,Sims Metal (Seaford),F797,Metropolitan WRRG,45 Wells Rd,Seaford,VIC,,,,true
Reprocessor,Sims Metal Management,F798,Gippsland WRRG,70 - 74 Eastern Road,Traralgon,VIC,,,,true
Reprocessor,Sims Metal (Churchill),F799,Gippsland WRRG,2-6 Webster St,Churchill,VIC,,,,true
Reprocessor,Sims Metal (Geelong),F800,Barwon South West WRRG,266 Thompson Rd,Geelong,VIC,,,,true
Reprocessor,SITA (Epping),F802,Metropolitan WRRG,480 Cooper Street,EPPING,VIC,,,,true
Reprocessor,SITA (Hampton Park),F803,Metropolitan WRRG,274 Hallam Rd,Hampton Park,VIC,,,,true
Reprocessor,Statewide Waste,F805,Barwon South West WRRG,355 Koroit Street,Warrnambool,VIC,3280,-38.3752340000,142.4646180000,true
Reprocessor,The Green Pipe,F806,Goulburn Valley WRRG,,Moama,VIC,,,,true
Reprocessor,The Mattress Recycler ,F807,Barwon South West WRRG,29B Grandview Parade,Moolap,VIC,,,,true
Reprocessor,The Midfield Group,F808,Barwon South West WRRG,Warrnambool,,VIC,,,,true
Reprocessor,TRP Morwell Pty Ltd,F810,Gippsland WRRG,35 Sunderland Circuit,Traralgon,VIC,,,,true
Reprocessor,Visy Board,F812,North East WRRG,299 McKoy Street,Wodonga,VIC,,,,true
Reprocessor,Wadref Humified Compost Pty Ltd (T/A Humus Composting),F813,Goulburn Valley WRRG,Lot 2 Lomers Road,Balmattum,VIC,3666,,,true
Reprocessor,WestonVic Waste,F815,Grampians Central West WRRG,8 Turnbull Drive,Horsham,VIC,,,,true
Reprocessor,Wodonga Rendering,F817,North East WRRG,59 Kelly Street ,Wodonga,VIC,3690,-36.1125130000,146.8759660000,true
Reprocessor,AA All Shape Pallets,F819,Metropolitan WRRG,,Brooklyn,VIC,,,,true
Reprocessor,Abate Contractors PTY LTD ,F820,Metropolitan WRRG,,,VIC,,,,true
Reprocessor,Alsafe Premix Concrete Pty Ltd,F821,Metropolitan WRRG,,,VIC,,,,true
Reprocessor,Amcor Limited,F822,Metropolitan WRRG,,,VIC,,,,true
Reprocessor,Australian Refined Alloys,F823,Metropolitan WRRG,17-19 Little Boundary Road,Laverton North,VIC,3026,-37.8217010000,144.8214430000,true
Reprocessor,Barton's Waste Collection Pty Ltd,F824,Barwon South West WRRG,,,VIC,,,,true
Reprocessor,Bedcollect,F825,Metropolitan WRRG,,,VIC,,,,true
Reprocessor,Bells Earthmoving,F826,North East WRRG,,,VIC,,,,true
Reprocessor,Blue Circle Southern Cement,F827,Metropolitan WRRG,,,VIC,,,,true
Reprocessor,Bluescope Steel Packaging Products,F828,Metropolitan WRRG,,,VIC,,,,true
Reprocessor,Boral Limited,F829,Metropolitan WRRG,,,VIC,,,,true
Reprocessor,Boral Limited (Bayswater),F830,Metropolitan WRRG,,,VIC,,,,true
Reprocessor,Boral Limited  (Port Melbourne),F831,Metropolitan WRRG,,,VIC,,,,true
Reprocessor,Boral Limited  (Somerton),F832,Metropolitan WRRG,,,VIC,,,,true
Reprocessor,Bridgewater Compost Pty Ltd,F833,Loddon Mallee WRRG,,,VIC,,,,true
Reprocessor,BSL Wipers,F834,Metropolitan WRRG,,,VIC,,,,true
Reprocessor,Central Recyclers,F835,Barwon South West WRRG,,,VIC,,,,true
Reprocessor,City of Greater Geelong Reprocessor,F837,Barwon South West WRRG,,,VIC,,,,true
Reprocessor,CityWide,F838,Metropolitan WRRG,,,VIC,,,,true
Reprocessor,Coldmax,F839,Metropolitan WRRG,,,VIC,,,,true
Reprocessor,Consolidated Waste,F840,Metropolitan WRRG,,,VIC,,,,true
Reprocessor,Corio Waste,F841,Barwon South West WRRG,,,VIC,,,,true
Reprocessor,Dasma Environmental Solutions,F842,Gippsland WRRG,,,VIC,,,,true
Reprocessor,Delaminating Resources,F843,Metropolitan WRRG,,,VIC,,,,true
Reprocessor,Eco Recyclers Pty Ltd,F844,Metropolitan WRRG,,,VIC,,,,true
Reprocessor,Ecocycle Australiam,F845,Metropolitan WRRG,,,VIC,,,,true
Reprocessor,Ecogroup,F846,Metropolitan WRRG,,,VIC,,,,true
Reprocessor,Ecogypsum,F847,Metropolitan WRRG,,,VIC,,,,true
Reprocessor,Enviro Rubber Pty Ltd,F848,Metropolitan WRRG,,,VIC,,,,true
Reprocessor,Envirobarks,F849,Metropolitan WRRG,,,VIC,,,,true
Reprocessor,Exports,F850,Metropolitan WRRG,,,VIC,,,,true
Reprocessor,Flexitec Rubber Surfaces,F851,Metropolitan WRRG,,,VIC,,,,true
Reprocessor,Fyansford,F852,Barwon South West WRRG,,,VIC,,,,true
Reprocessor,G&S EnviroWaste,F853,Barwon South West WRRG,,,VIC,,,,true
Reprocessor,Gippsland Water,F854,Gippsland WRRG,,,VIC,,,,true
Reprocessor,Greater Shepparton Resource Recovery Centre,F855,Goulburn Valley WRRG,,,VIC,,,,true
Reprocessor,Green Planet Environmental,F856,Metropolitan WRRG,,,VIC,,,,true
Reprocessor,Higgins standing,F857,Metropolitan WRRG,,,VIC,,,,true
Reprocessor,Hillview Compost,F858,Barwon South West WRRG,390 Sandy Creek Rd,Lara,VIC,3212,-38.0166670000,144.4166670000,true
Reprocessor,Hot Blocks,F860,Metropolitan WRRG,,,VIC,,,,true
Reprocessor,Jackson Earthmoving,F861,North East WRRG,,,VIC,,,,true
Reprocessor,Local Government Data,F862,Metropolitan WRRG,,,VIC,,,,true
Reprocessor,Logic Australia Pty Ltd,F863,Metropolitan WRRG,,,VIC,,,,true
Reprocessor,Masterfibre (Vic) Pty Ltd,F864,Metropolitan WRRG,,,VIC,,,,true
Reprocessor,Melbourne Mattress Recycling,F865,Metropolitan WRRG,,,VIC,,,,true
Reprocessor,Meluca Group,F866,Metropolitan WRRG,,,VIC,,,,true
Reprocessor,Metro Mix,F867,Metropolitan WRRG,,,VIC,,,,true
Reprocessor,Mobius Materials Recovery,F868,Metropolitan WRRG,,,VIC,,,,true
Reprocessor,National Plastics Recycling Survey,F869,Metropolitan WRRG,,,VIC,,,,true
Reprocessor,Natural Recovery Systems (Veolia),F870,Metropolitan WRRG,,,VIC,,,,true
Reprocessor,Organic Recyclers Pty Ltd,F871,Metropolitan WRRG,,,VIC,,,,true
Reprocessor,Owens Illinois,F872,Metropolitan WRRG,,,VIC,,,,true
Reprocessor,Pacific NonWovens,F873,Metropolitan WRRG,,,VIC,,,,true
Reprocessor,Parwan Valley Mushrooms,F874,Metropolitan WRRG,,,VIC,,,,true
Reprocessor,Pierre la Plage Pty Ltd,F875,Metropolitan WRRG,,,VIC,,,,true
Reprocessor,Pioneer Textiles,F876,Metropolitan WRRG,,,VIC,,,,true
Reprocessor,Recovery and Recycling Industries,F877,Metropolitan WRRG,,,VIC,,,,true
Reprocessor,Rubber Tough Industries,F878,Gippsland WRRG,,,VIC,,,,true
Reprocessor,Shandley's,F879,Metropolitan WRRG,,,VIC,,,,true
Reprocessor,Sims Tyrecycle,F884,Metropolitan WRRG,,,VIC,,,,true
Reprocessor,SITA Organics,F885,Metropolitan WRRG,,,VIC,,,,true
Reprocessor,Smorgon Steel,F886,Metropolitan WRRG,,,VIC,,,,true
Reprocessor,Southern Recycling,F887,Metropolitan WRRG,,,VIC,,,,true
Reprocessor,Statewide Waste (Austral Waste),F888,Metropolitan WRRG,,,VIC,,,,true
Reprocessor,Surecrop Australia P/L,F889,Metropolitan WRRG,,,VIC,,,,true
Reprocessor,The Dasma Group,F890,Gippsland WRRG,,,VIC,,,,true
Reprocessor,TIC Group,F891,Metropolitan WRRG,,,VIC,,,,true
Reprocessor,Toby's Recycled Bricks,F892,Metropolitan WRRG,,,VIC,,,,true
Reprocessor,Trevor Jackson Pty Ltd,F893,Metropolitan WRRG,,,VIC,,,,true
Reprocessor,Urban Timber Reprocessor,F894,Metropolitan WRRG,,,VIC,,,,true
Reprocessor,Veolia Bulla,F895,Metropolitan WRRG,,,VIC,,,,true
Reprocessor,Veolia Environmental Services,F896,Metropolitan WRRG,,,VIC,,,,true
Reprocessor,Wandilo (Overflow),F897,Barwon South West WRRG,,,VIC,,,,true
Reprocessor,Waste Smart,F898,Metropolitan WRRG,,,VIC,,,,true
Reprocessor,Works Infrastructure,F899,Metropolitan WRRG,,,VIC,,,,true
Reprocessor,Veolia Ordish Road,F901,Metropolitan WRRG,,,VIC,,,,true
Reprocessor,Green Care Mulching,F925,Barwon South West WRRG,42-50 Point Henry Rd,Moolap,VIC,3221,,,true
Reprocessor,TES-AMM,F926,Metropolitan WRRG,31 Geddes St,Mulgrave,VIC,3170,,,true
Reprocessor,PGM refiners,F927,Metropolitan WRRG,7 Mills Rd,Dandenong,VIC,3175,-37.9897380000,145.1951140000,true
Reprocessor,Davos Worm Farms,F928,Grampians Central West WRRG,54 Henders Rd,Broomfield,VIC,3364,,,true
Reprocessor,Urban Salvage,F929,Metropolitan WRRG,190A Hall St,Spotswood,VIC,3015,,,true
Reprocessor,Epsom Sand and Soil,F930,Loddon Mallee WRRG,452 Epsom-Barnadown Rd,Wellsford,VIC,3551,,,true
Reprocessor,CMA Ecocycle,F1045,Metropolitan WRRG,5-11 Reo Crescent,Campbellfield,VIC,3061,-37.6469860000,144.9384040000,true
Reprocessor,Tyre a way,F1047,Metropolitan WRRG,"Factory 2, 2 England st",Dandenong South,VIC,3175,,,true
Reprocessor,Cleanaway Solids Waste Pty Ltd,F1049,Metropolitan WRRG,46 Victory Road,Clarinda,VIC,3169,,,true
Reprocessor,Suez Organics,F1050,Metropolitan WRRG,,,VIC,,,,true
Reprocessor,Yarra Valley Water ReWaste Facility,F1058,Metropolitan WRRG,525 Craigieburn Road East,Wollert,VIC,3750,-37.6054800000,144.9998100000,true
Reprocessor,Outlook Environmental,F1059,Metropolitan WRRG,24 Toomuc Valley Road,Pakenham ,VIC,3810,,,true
Reprocessor,Corangamite composting facility (at landfill),F1060,Barwon South West WRRG,"Section 4, County Boundary & Forest Park Rds",Naroghid,VIC,3266,-38.2721770000,143.0513510000,true
Reprocessor,a DUMMY WIMMERA WASTEBUSTERS,F1061,Loddon Mallee WRRG,blah,,VIC,,,,true
RRC/TS,Resource Recovery Victoria,F6,Metropolitan WRRG,Rear 47-49 Malcolm Rd,Braeside,VIC,3195,-37.9988638889,145.1132444440,true
RRC/TS,Mornington Peninsula Tranfer Station (Tyabb),F263,Metropolitan WRRG,19 McKirdy's rd,Tyabb,VIC,,-38.2599611111,145.2182361110,true
RRC/TS,Veolia C&I Transfer Station,F311,Metropolitan WRRG,72-74 Ordish Rd,Dandenong South,VIC,,-38.0221333333,145.1919222220,true
RRC/TS,Beech Forest Drop-off Facility,F312,Barwon South West WRRG,Beech Forest Rd,Beech Forest,VIC,3237,-38.6339000000,143.5689000000,true
RRC/TS,Carlisle River Drop-off Facility,F313,Barwon South West WRRG,"Carlisle River Hall, Colac Carlisle Rd",Carlisle River,VIC,3239,-38.5527780000,143.4025000000,true
RRC/TS,Gellibrand Drop-off Facility (old Gellibrand Landfill),F314,Barwon South West WRRG,Gellibrand Rd,Gellibrand,VIC,,-38.5201630000,143.5376990000,true
RRC/TS,Lavers Hill Drop-off Facility,F315,Barwon South West WRRG,"Lavers Hill Hall, Great Ocean Rd",Lavers Hill,VIC,3238,-38.6924777800,143.3635917000,true
RRC/TS,Kiata Depot,F316,Grampians Central West WRRG,Reserve Rd,Kiata,VIC,,-36.3637416667,141.7873666670,true
RRC/TS,Netherby Depot,F317,Grampians Central West WRRG,Netherby Yanac Rd,Netherby,VIC,,-36.1077222222,141.6525250000,true
RRC/TS,Yanac Depot,F318,Grampians Central West WRRG,Netherby Yanac Rd,Yanac,VIC,,-36.1351694444,141.4373750000,true
RRC/TS,Graytown Collection Point,F319,Goulburn Valley WRRG,Graytown/Costerfield Rd,Graytown,VIC,3608,-36.8362090000,144.9320270000,true
RRC/TS,Longwood Collection Point,F320,Goulburn Valley WRRG,Maxfield St,Longwood,VIC,3665,-36.8021720000,145.4176170000,true
RRC/TS,Ruffy Collection Point,F321,Goulburn Valley WRRG,Redgate Lane/Longwood Ruffy Rd,Ruffy,VIC,3666,-36.9395510000,145.4767510000,true
RRC/TS,Dromana Hopper,F322,Metropolitan WRRG,256 Boundary Rd,Dromana,VIC,,-38.3431750000,144.9785444000,true
RRC/TS,Flinders Hopper,F323,Metropolitan WRRG,Double Creek Rd,Flinders,VIC,,-38.4760120000,145.0052880000,true
RRC/TS,Sorrento Hopper,F324,Metropolitan WRRG,Normanby Rd,Sorrento,VIC,,-38.3430690000,144.7284800000,true
RRC/TS,Eskdale Recycle Shed,F325,North East WRRG,Omeo Hwy,Eskdale,VIC,,-36.4653361111,147.2511500000,true
RRC/TS,Laharum Recycling Bin Corral,F326,Goulburn Valley WRRG,"Rear of Laharum Hall, Northern Grampians Road",Laharum,VIC,,-36.9463800000,142.3227000000,true
RRC/TS,Natimuk Recycling Bin Corral,F329,Goulburn Valley WRRG,"Rear of fire shed, Sisson Street",Natimuk,VIC,,-36.7436200000,141.9388000000,true
RRC/TS,Anglers Rest Transfer Trailer,F333,Gippsland WRRG,Callaghan Rd,Anglers Rest,VIC,,-36.9924880000,147.4793770000,true
RRC/TS,Brodribb River Transfer Trailer,F334,Gippsland WRRG,Sandy Flat Creek Rd,Brodribb,VIC,,-37.7058940000,148.5640000000,true
RRC/TS,Buldah Transfer Trailer,F335,Gippsland WRRG,Buldah Rd,Buldah,VIC,,-37.2695490000,149.1448500000,true
RRC/TS,Chandlers Creek,F336,Gippsland WRRG,,Chandlers Creek,VIC,,-37.3370583333,149.2066194440,true
RRC/TS,Club Terrace Transfer Trailer,F337,Gippsland WRRG,School Rd,Club Terrace,VIC,,-37.5416710000,148.9366930000,true
RRC/TS,Combienbar Transfer Trailer,F338,Gippsland WRRG,,Combienbar,VIC,3889,-37.3938890000,149.0169440000,true
RRC/TS,Deddick Transfer Trailer,F339,Gippsland WRRG,Mckillops Rd,Deddick,VIC,,-37.0750030000,148.4968030000,true
RRC/TS,Dellicknora Transfer Trailer,F340,Gippsland WRRG,,Dellicknora,VIC,,-37.1044440000,148.6872220000,true
RRC/TS,Ensay Transfer Trailer,F341,Gippsland WRRG,Old Omeo Hwy,Ensay,VIC,3895,-37.3824580000,147.8322080000,true
RRC/TS,Gipsy Point Transfer Trailer,F342,Gippsland WRRG,Tuck's Track,Gipsy Point,VIC,,-37.4831222200,149.6843111000,true
RRC/TS,Glen Wills Transfer Trailer,F343,Gippsland WRRG,,Glen Valley,VIC,,-36.8658330000,147.4830560000,true
RRC/TS,Goongerah Transfer Trailer,F344,Gippsland WRRG,Bonang Rd,Goongerah,VIC,,-37.3415400000,148.6953540000,true
RRC/TS,Tamboon / Furnell Landing Transfer Trailer,F345,Gippsland WRRG,,Tamboon,VIC,3890,-37.7455560000,149.1411110000,true
RRC/TS,Alvie Transfer Station,F346,Barwon South West WRRG,977 Corangamite Lake Road,Alvie,VIC,,-38.2511218417,143.5199062920,true
RRC/TS,Anglesea Transfer Station (at landfill site),F347,Barwon South West WRRG,50 Coalmine Rd,Anglesea,VIC,,-38.3857140000,144.2000000000,true
RRC/TS,Apollo Bay Resource Recovery Centre,F348,Barwon South West WRRG,13 Arthur Court,Apollo Bay,VIC,,-38.7558580000,143.6544110000,true
RRC/TS,Birregurra Transfer Station,F349,Barwon South West WRRG,Scouller St,Birregurra,VIC,,-38.3330638900,143.7887639000,true
RRC/TS,Western Waste Management,F350,Barwon South West WRRG,11 Mariner St,Colac,VIC,3250,-38.3295490000,143.6128990000,true
RRC/TS,Deans Marsh Transfer Station,F351,Goulburn Valley WRRG,110 Pennyroyal Station Rd,Deans Marsh,VIC,,-38.4261770000,143.8658550000,true
RRC/TS,Drysdale Resource Recovery Centre & Transfer Station (at landfill),F352,Barwon South West WRRG,Becks Rd,Drysdale,VIC,,-38.1708000000,144.6276000000,true
RRC/TS,Lorne Transfer Station & Resource Recovery Facility,F353,Barwon South West WRRG,370 Erskine Falls Rd,Lorne,VIC,,-38.5292600000,143.9470000000,true
RRC/TS,North Geelong Resource Recovery Centre & Transfer Station,F354,Barwon South West WRRG,100 Douro Street,North Geelong,VIC,,-38.1217660000,144.3475150000,true
RRC/TS,Point Henry Transfer Station,F355,Barwon South West WRRG,50 Point Henry Road,Moolap,VIC,3221,-38.1641110000,144.4269720000,true
RRC/TS,Winchelsea Transfer Station,F356,Barwon South West WRRG,55 Cressy Rd,Winchelsea,VIC,,-38.2374930000,143.9716460000,true
RRC/TS,Eaglehawk Recovery & Sales Yard,F357,Loddon Mallee WRRG,Upper Califronia Gully Road,Eaglehawk,VIC,3556,-36.7277700000,144.2464000000,true
RRC/TS,Goornong Transfer Station,F358,Loddon Mallee WRRG,Englishs Rd,Goornong,VIC,,-36.6164250000,144.5185280000,true
RRC/TS,Kyneton Transfer Station,F359,Loddon Mallee WRRG,140 Redesdale Rd,Kyneton,VIC,,-37.2250080000,144.4577060000,true
RRC/TS,Maldon Transfer Station,F360,Loddon Mallee WRRG,Morris St,Maldon,VIC,,-36.9936540000,144.0797150000,true
RRC/TS,Romsey Resource Recovery & Transfer Station,F361,Loddon Mallee WRRG,21 Johnston Court (Off Portingales Road),Romsey,VIC,,-37.3612330000,144.7681830000,true
RRC/TS,Strathfieldsaye Transfer Station,F362,Loddon Mallee WRRG,Strathfieldsaye Road,Strathfieldsaye,VIC,,-36.8096100000,144.3592610000,true
RRC/TS,Woodend Transfer Station,F363,Loddon Mallee WRRG,149 Quarry Rd,Woodend,VIC,,-37.3683030000,144.5411530000,true
RRC/TS,Cohuna Transfer Station,F364,Loddon Mallee WRRG,chuggs Rd,Cohuna,VIC,,-35.8189880000,144.2145390000,true
RRC/TS,Dingee Transfer Station,F365,Loddon Mallee WRRG,Lawry's Rd,Dingee,VIC,,-36.3563777800,144.2428910000,true
RRC/TS,Kerang Transfer Station,F366,Loddon Mallee WRRG,Kerang/Murrabit Road,Kerang,VIC,,-35.7199780000,143.9257420000,true
RRC/TS,Lalbert Transfer Station,F367,Loddon Mallee WRRG,Wood Avenue,Lalbert,VIC,,-35.6709100000,143.3632740000,true
RRC/TS,Quambatook Transfer Station,F368,Loddon Mallee WRRG,Meering Road,Quambatook,VIC,,-35.8521290000,143.5003070000,true
RRC/TS,Sea Lake Resource Recovery Facility,F369,Loddon Mallee WRRG,Tip Rd (Off Sea Lake - Robinvale Rd),Sea Lake,VIC,,-35.4597650000,142.8548350000,true
RRC/TS,Watchem Resource Recovery Centre,F370,Loddon Mallee WRRG,Morton Street,Watchem,VIC,,-36.1555210000,142.8664260000,true
RRC/TS,Wedderburn Transfer Station,F371,Loddon Mallee WRRG,Godfrey Street,Wedderburn,VIC,,-36.4227060000,143.6037170000,true
RRC/TS,Apsley Transfer Station,F372,Grampians Central West WRRG,Off Apsley / Langkoop Road,Apsley,VIC,,-36.9848800000,141.0685300000,true
RRC/TS,Chetwynd Transfer Station,F373,Grampians Central West WRRG,Chetwynd Cemetery Rd,Chetwynd,VIC,,-37.2711680000,141.3952030000,true
RRC/TS,Dergholm Transfer Station,F374,Grampians Central West WRRG,Off Casterton /Naracoorte Road,Dergholm,VIC,,-37.3966650000,141.2184280000,true
RRC/TS,Dimboola Transfer Station,F375,Grampians Central West WRRG,Warracknabeal Road,Dimboola,VIC,,-36.4493090000,142.0498290000,true
RRC/TS,Edenhope Transfer Station,F376,Grampians Central West WRRG,Moss St,Edenhope,VIC,,-37.0374280000,141.2822250000,true
RRC/TS,Goroke Transfer Station,F377,Grampians Central West WRRG,Kylie Street,Goroke,VIC,,-36.7156694400,141.4728222000,true
RRC/TS,Harrow Transfer Station,F378,Grampians Central West WRRG,Off Nhill / Harrow Road,Harrow,VIC,,-37.1351520000,141.5971270000,true
RRC/TS,Jeparit Transfer Station,F379,Grampians Central West WRRG,Jeparit East Road,Jeparit,VIC,,-36.1345320000,141.9947780000,true
RRC/TS,Kaniva Transfer Station,F380,Grampians Central West WRRG,South Lillimur Rd,Kaniva,VIC,,-36.3848000000,141.2255000000,true
RRC/TS,Lemon Springs Transfer Station,F381,Grampians Central West WRRG,Off Kaniva Edenhope Rd,Lemon Springs,VIC,,-36.6879250000,141.2664944000,true
RRC/TS,Nhill Transfer Station,F382,Grampians Central West WRRG,Netherby Road,Nhill,VIC,,-36.3179600000,141.6637000000,true
RRC/TS,Rainbow Transfer Station,F383,Grampians Central West WRRG,Off Rainbow Nhill Road,Rainbow,VIC,,-35.9058490000,141.9728570000,true
RRC/TS,Serviceton Transfer Station,F384,Grampians Central West WRRG,Serviceton Tip Road,Serviceton,VIC,,-36.3679694400,140.9966500000,true
RRC/TS,Bemm River Transfer Station,F385,Gippsland WRRG,Sydenham Inlet Rd,Bemm River,VIC,,-36.5128000000,146.0005306000,true
RRC/TS,Bruthen Transfer Station,F386,Gippsland WRRG,Great Alpine Rd,Bruthen,VIC,,-37.7016400000,147.8340530000,true
RRC/TS,Buchan Recycling & Recovery Transfer Centre,F387,Gippsland WRRG,Buchan Rd,Buchan,VIC,,-37.5234510000,148.1608230000,true
RRC/TS,Dargo Transfer Station,F388,Gippsland WRRG,Kings St,Dargo,VIC,,-37.4598473480,147.2443249920,true
RRC/TS,Erica Transfer Station,F389,Gippsland WRRG,Mathiesons Rd,Erica,VIC,,-37.9816760000,146.3716490000,true
RRC/TS,Foster Transfer Station,F390,Gippsland WRRG,South Gippsland Hwy,Foster,VIC,,-38.6492720000,146.2104130000,true
RRC/TS,Genoa Transfer Station,F391,Gippsland WRRG,Princes Hwy,Genoa,VIC,,-37.4681000000,149.5894667000,true
RRC/TS,Grantville Resource Recovery Centre (at landfill site),F392,Gippsland WRRG,Cnr Bass Hwy & Stanley Rd,Grantville,VIC,,-38.4179920000,145.5304820000,true
RRC/TS,Heyfield Transfer Station,F393,Gippsland WRRG,Rifle Range Rd,Heyfield,VIC,,-37.9743430000,146.7633210000,true
RRC/TS,Inverloch Transfer Station,F394,Gippsland WRRG,Old Ford Road Screw Creek Road?,Inverloch,VIC,,-38.6266270000,145.7434540000,true
RRC/TS,Koonwarra Transfer Station Koonwarra,F395,Gippsland WRRG,Koonwarra-Inverloch Rd & Sewells Rd,Koonwarra,VIC,,-38.5567920000,145.9277350000,true
RRC/TS,Korumburra Transfer Station,F396,Gippsland WRRG,Silkstone Rd,Korumburra,VIC,,-38.4466920000,145.8352050000,true
RRC/TS,Lardner Transfer Station,F397,Gippsland WRRG,"Simpson Rd (Off Burnt Store Rd, Opposite Field Days Side Entrance)",Lardner,VIC,,-38.2227950000,145.8641510000,true
RRC/TS,Lindenow South Transfer Station,F398,Gippsland WRRG,Snobbs Lane,Lindenow Sth,VIC,,-37.8146361100,147.4224194000,true
RRC/TS,Loch Sport Transfer Station & Resource Recovery,F399,Gippsland WRRG,Progress Rd,Loch Sport,VIC,,-38.0656490000,147.5556320000,true
RRC/TS,Marlo Transfer Station,F400,Gippsland WRRG,Tip Rd,Marlo,VIC,,-37.7916500000,148.5496830000,true
RRC/TS,Metung Transfer Station & Resource Recovery,F401,Gippsland WRRG,130 Rosherville Rd,Metung,VIC,,-37.8512407000,147.8598313580,true
RRC/TS,Mirboo North Transfer Station,F402,Gippsland WRRG,Railway Rd,Mirboo North,VIC,,-38.4010940000,146.1720410000,true
RRC/TS,Moe Transfer Station,F403,Gippsland WRRG,Haunted Hills Rd,Newborough,VIC,,-38.1966460000,146.2978300000,true
RRC/TS,Morwell Transfer Station,F404,Gippsland WRRG,Porters Rd (Off Tramway Rd),Morwell,VIC,,-38.2559000000,146.4257000000,true
RRC/TS,Neerim South Transfer Station,F405,Gippsland WRRG,Neerim East Rd,Neerim South,VIC,,-38.0092900000,145.9681900000,true
RRC/TS,Newmerella Transfer Station,F406,Gippsland WRRG,Coringle Rd,Newmerella,VIC,,-37.7499290000,148.4249370000,true
RRC/TS,Omeo Recycling & Recovery Transfer Centre,F407,Gippsland WRRG,Margetts Lane,Omeo,VIC,,-37.0997220000,147.6046010000,true
RRC/TS,Rhyll Transfer Station,F408,Gippsland WRRG,309 Cowes-Rhyll Rd,Rhyll,VIC,,-38.4636920000,145.2938570000,true
RRC/TS,Sale Transfer Station,F409,Gippsland WRRG,Lacey St,Sale,VIC,,-38.1191583300,147.0775028000,true
RRC/TS,Seaspray Transfer Station,F410,Gippsland WRRG,Tip Rd,Seaspray,VIC,,-38.3665090000,147.1922140000,true
RRC/TS,Stratford Transfer Station & Resource Recovery Facility,F411,Gippsland WRRG,Wyndham St,Stratford,VIC,,-37.9577360000,147.0919830000,true
RRC/TS,Swifts Creek Recycling & Recovery Transfer Centre,F412,Gippsland WRRG,Swifts Creek Omeo Rd Cassilis Rd,Swifts Creek,VIC,,-37.2683070000,147.6984290000,true
RRC/TS,Trafalgar Transfer Station,F413,Gippsland WRRG,Giles Rd,Trafalgar,VIC,,-38.2215140000,146.1479500000,true
RRC/TS,Traralgon Transfer Station,F414,Gippsland WRRG,Depot Rd (South End Of Liddiard Rd),Traralgon,VIC,,-38.2137600000,146.5503300000,true
RRC/TS,Venus Bay Transfer Station,F415,Gippsland WRRG,3 Beach Rd (Cnr Canterbury Rd),Venus Bay,VIC,,-38.6963000000,145.8099722000,true
RRC/TS,Wairewa Transfer Station,F416,Gippsland WRRG,Carl Smith Road,Wairewa,VIC,,-37.6904000000,148.1904000000,true
RRC/TS,Walkerville Transfer Station,F417,Gippsland WRRG,Fish Creek Rd,Walkerville,VIC,,-38.8267220000,145.9975760000,true
RRC/TS,Wonthaggi Transfer Station,F418,Gippsland WRRG,180 Cameron St,Wonthaggi,VIC,,-38.6223150000,145.5799560000,true
RRC/TS,Yarram Transfer Station & Resource Recovery Facility,F419,Gippsland WRRG,Hyland Hwy,Yarram,VIC,,-38.5412810000,146.7096880000,true
RRC/TS,Yinnar Transfer Station,F420,Gippsland WRRG,Whitelaws Track,Yinnar South,VIC,,-38.3491580000,146.3248860000,true
RRC/TS,Ardmona Transfer Station,F421,Goulburn Valley WRRG,Cnr Midland Hwy & Turnbull Rd,Ardmona,VIC,,-36.3750170000,145.2918980000,true
RRC/TS,Avenel Transfer Station,F422,Goulburn Valley WRRG,Monea Rd,Avenel,VIC,,-36.8848222200,145.2383556000,true
RRC/TS,Barmah Transfer Station,F423,Goulburn Valley WRRG,Cnr Moira Lakes Rd & Racecourse Rd,Barmah,VIC,,-36.0062305600,144.9627667000,true
RRC/TS,Broadford Transfer Station,F424,Goulburn Valley WRRG,Off Mia Mia Rd,Broadford,VIC,,-37.2296930000,145.0777600000,true
RRC/TS,Colbinabbin Transfer Station & Resource Recovery,F425,Goulburn Valley WRRG,Cemetery Rd,Colbinabbin,VIC,,-36.5961500000,144.8010000000,true
RRC/TS,Echuca Environment Centre,F426,Goulburn Valley WRRG,McKenzie Rd,Echuca,VIC,,-36.1380520000,144.7422540000,true
RRC/TS,Eildon Transfer Station,F427,Goulburn Valley WRRG,Jerusalem Creek Rd (Might Be Just Jerusalem Rd),Eildon,VIC,,-37.2368270000,145.9232120000,true
RRC/TS,Euroa Transfer Station,F428,Goulburn Valley WRRG,Tip Rd,Euroa,VIC,,-36.7605920000,145.5521140000,true
RRC/TS,Gunbower Transfer Station,F429,Goulburn Valley WRRG,Murray Valley Hwy,Gunbower,VIC,,-35.9644200000,144.3767800000,true
RRC/TS,Kinglake Transfer Station,F430,Goulburn Valley WRRG,Watsons Rd,Kinglake West,VIC,,-37.4719710000,145.2761210000,true
RRC/TS,Lockington Transfer Station,F431,Goulburn Valley WRRG,Cnr Keane And O'Donnell Rds,Lockington,VIC,3563,-36.3346805600,144.5068250000,true
RRC/TS,Marysville Transfer Station,F432,Goulburn Valley WRRG,Sunds Mill Crt (Might Just Be Sunds Rd),Marysville,VIC,,-37.5065080000,145.7385820000,true
RRC/TS,Mt Scobie Transfer Station (also known as Kyabram),F433,Goulburn Valley WRRG,Cnr Curr & Everard Rds,Kyabram,VIC,,-36.3126300000,144.9805000000,true
RRC/TS,Murchison Transfer Station,F434,Goulburn Valley WRRG,Cnr Old Whroo Rd & Cassidy Rd,Murchison,VIC,3610,-36.6225166700,145.1918528000,true
RRC/TS,Nagambie Transfer Station,F435,Goulburn Valley WRRG,McDonald's Rd,Nagambie,VIC,,-36.7813080000,145.1947190000,true
RRC/TS,Nathalia Transfer Station,F436,Goulburn Valley WRRG,Shepparton-Barmah Rd & Balls Rd,Nathalia,VIC,,-36.0832510000,145.1873150000,true
RRC/TS,Numurkah Transfer Station,F437,Goulburn Valley WRRG,Naring Rd (Btwn Hendys Rd & Lorenzs Rd),Numurkah,VIC,,-36.0832510000,145.1873150000,true
RRC/TS,Pyalong Transfer Station,F438,Goulburn Valley WRRG,Ladderhill Rd,Pyalong,VIC,,-37.1141260000,144.8647260000,true
RRC/TS,Rochester Transfer Station & Resource Recovery,F439,Goulburn Valley WRRG,Cnr High St & Stephen St,Rochester,VIC,,-36.3564560000,144.7098330000,true
RRC/TS,Rushworth Transfer Station,F440,Goulburn Valley WRRG,Nine Mile Rd,Rushworth,VIC,3612,-36.6003000000,145.0009360000,true
RRC/TS,Seymour Resource Recovery Facility (at landfill site),F441,Goulburn Valley WRRG,Cnr Hume & Hovell Rd,Seymour,VIC,,-37.0523110000,145.1521000000,true
RRC/TS,Shepparton Transfer Station,F442,Goulburn Valley WRRG,125 Wanganui Rd,Shepparton,VIC,,-36.3477060000,145.3881230000,true
RRC/TS,St James Transfer Station,F443,Goulburn Valley WRRG,Kelly's Rd South Of St James Rd,St James,VIC,,-36.2782200000,145.8775360000,true
RRC/TS,Strathmerton Transfer Station,F444,Goulburn Valley WRRG,Murray Valley Hwy (Btwn Ruttles Rd & Stokes Rd),Strathmerton,VIC,,-35.9235990000,145.5253610000,true
RRC/TS,Toolleen Transfer Station & Resource Recovery,F445,Goulburn Valley WRRG,Cornella Toolleen Rd,Toolleen,VIC,,-36.7091760000,144.7131880000,true
RRC/TS,Tungamah Transfer Station,F446,Goulburn Valley WRRG,Tungamah Rd (Btwn Chinamans Lane & Cemetery Rd),Tungamah,VIC,,-36.1408310000,145.8787080000,true
RRC/TS,Violet Town Resource Transfer Station,F447,Goulburn Valley WRRG,190 McDiarmids Rd,Violet Town,VIC,3669,-36.6707350000,145.6689640000,true
RRC/TS,Wallan Transfer Station,F448,Goulburn Valley WRRG,"Wallan Industrial Estate, Freeway Drive",Wallan,VIC,3756,-37.4172300000,145.0006000000,true
RRC/TS,Yabba Transfer Station,F449,Goulburn Valley WRRG,Yabba South Rd (Btwn Katandra Rd & Jeffrey's Rd),Yabba,VIC,,-36.2403430000,145.6499740000,true
RRC/TS,Yarrawonga Transfer Station,F450,Goulburn Valley WRRG,Channel Rd,Yarrawonga,VIC,,-36.0407030000,146.0018750000,true
RRC/TS,Yea Transfer Station,F451,Goulburn Valley WRRG,Ghin Ghin Rd,Yea,VIC,,-37.2052000000,145.3864530000,true
RRC/TS,Ararat Resource Recovery Centre,F452,Grampians Central West WRRG,Surface Hill Rd (Off Queen St S,Ararat,VIC,,-37.2965350000,142.9304710000,true
RRC/TS,Beulah Transfer Station & Resource Recovery Centre,F453,Grampians Central West WRRG,Birchip - Rainbow Rd,Beulah,VIC,,-35.9309777800,142.4408611000,true
RRC/TS,Elmhurst Landfill & Resource Recovery Centre (unlicensed) (hard waste only),F454,Grampians Central West WRRG,Mckay St,Elmhurst,VIC,,-37.1895470000,143.2525740000,true
RRC/TS,Glenorchy Resource Recovery Centre,F455,Grampians Central West WRRG,Arapiles St,Glenorchy,VIC,3385,-36.9070833300,142.6573333000,true
RRC/TS,Great Western (Green Waste Only),F456,Grampians Central West WRRG,Salt Creek Rd Old Great Western And Bulgan Rds,Great Western,VIC,,-37.1185500000,142.8783000000,true
RRC/TS,Halls Gap Transfer Station,F457,Grampians Central West WRRG,4300 Ararat - Halls Gap Rd,Halls Gap,VIC,,-37.1116305600,142.5824194000,true
RRC/TS,Hopetoun Transfer Station & Resource Recovery Centre,F458,Grampians Central West WRRG,Hopetoun - Yaapeet Rd,Hopetoun,VIC,,-35.7372416700,142.3465278000,true
RRC/TS,Horsham Transfer Station & Resource Recovery Centre,F459,Grampians Central West WRRG,Kenny Road,Horsham,VIC,3400,-36.7416720000,142.1858110000,true
RRC/TS,Jung Transfer Station & Resource Recovery Centre,F460,Grampians Central West WRRG,Jung Recreation Reserve Rd,Jung,VIC,,-36.6010930000,142.3937660000,true
RRC/TS,Lake Bolac landfill & Resource Recovery Centre (unlicensed) (hard waste only),F461,Grampians Central West WRRG,Rubbish Tip Rd,Lake Bolac,VIC,,-37.7025850000,142.8280060000,true
RRC/TS,Minyip Transfer Station & Resource Recovery Centre,F462,Grampians Central West WRRG,Minyip-Stawell Rd,Minyip,VIC,,-36.4699090000,142.5906690000,true
RRC/TS,Moyston Landfill & Resource Recovery Centre (unlicensed) (hard waste only),F463,Grampians Central West WRRG,Off Moyston West Rd,Moyston,VIC,,-37.2917100000,142.7344000000,true
RRC/TS,Murtoa Transfer Station & Resource Recovery Centre,F464,Grampians Central West WRRG,Murtoa - Rupanyup Rd,Murtoa,VIC,,-36.6219833300,142.4967000000,true
RRC/TS,Pimpinio Transfer Station & Resource Recovery Facility,F465,Grampians Central West WRRG,Banyena Rd,Pimpinio,VIC,,-36.5814410000,142.1280120000,true
RRC/TS,Pomonal Landfill & Resource Recovery Centre (unlicensed) (hard waste only),F466,Grampians Central West WRRG,Pomonal East Rd,Pomonal,VIC,,-37.1951850000,142.6371990000,true
RRC/TS,Quantong Transfer Station & Resource Recovery Centre,F467,Grampians Central West WRRG,SW Cnr Hutchinson Rd & Lanes Av,Quantong,VIC,,-36.7564130000,142.0440200000,true
RRC/TS,Rupanyup Transfer Station & Resource Recovery Centre,F468,Grampians Central West WRRG,Dyer Street,Rupanyup,VIC,,-36.6340944400,142.6291361000,true
RRC/TS,Stawell Transfer Station,F469,Grampians Central West WRRG,Lavett Road,Stawell,VIC,,-37.0726810000,142.8100420000,true
RRC/TS,Streatham Resource Recovery Centre (hard waste only),F470,Grampians Central West WRRG,Nerrim Nerrim - Boundary Rd,Streatham,VIC,3351,-37.6806960000,143.0412310000,true
RRC/TS,Tatyoon Landfill & Resource Recovery Centre (unlicensed) (hard waste only),F471,Grampians Central West WRRG,Off Porters Bridge Rd,Tatyoon,VIC,,-37.5350640000,142.9563670000,true
RRC/TS,Toolondo Transfer Station & Resource Recovery Facility,F472,Grampians Central West WRRG,Telangatuk East Road,Toolondo,VIC,,-37.0001550000,141.9744050000,true
RRC/TS,Willaura Landfill & Resource Recovery Centre (unlicensed) (hard waste only),F473,Grampians Central West WRRG,Wickcliffe - Willaura Rd,Willaura,VIC,,-37.5779530000,142.7330210000,true
RRC/TS,Woomelang Transfer Station & Resource Recovery Centre,F474,Grampians Central West WRRG,Off Hopetoun Sea Lake Rd,Woomelang,VIC,,-35.6778240000,142.6780250000,true
RRC/TS,Avoca Transfer Station,F475,Grampians Central West WRRG,Russell St,Avoca,VIC,,-37.0851390000,143.4813810000,true
RRC/TS,Bacchus Marsh Transfer Station,F476,Grampians Central West WRRG,Moore Street South,Bacchus Marsh,VIC,,-37.6874550000,144.4435910000,true
RRC/TS,Ballan Transfer Station,F477,Grampians Central West WRRG,Montville Lane,Ballan,VIC,,-37.6017500000,144.2697000000,true
RRC/TS,Ballarat Transfer Station,F478,Grampians Central West WRRG,Gillies St,Ballarat,VIC,,-37.5664120000,143.8161620000,true
RRC/TS,Bealiba Transfer Station,F479,Grampians Central West WRRG,Whitehills Rd,Bealiba,VIC,,-36.7927805600,143.5446028000,true
RRC/TS,Beaufort Transfer Station,F480,Grampians Central West WRRG,Racecourse Rd,Beaufort,VIC,,-37.4253930000,143.3964990000,true
RRC/TS,Carisbrook Transfer Station,F481,Grampians Central West WRRG,Potts Lane,Carisbrook,VIC,3464,-37.0648000000,143.7918000000,true
RRC/TS,Creswick Transfer Station and Resale Centre,F482,Grampians Central West WRRG,32 Anne Street (Off Ring Road),Creswick,VIC,,-37.4156010000,143.8863860000,true
RRC/TS,Daylesford Transfer Station and Resale Centre,F483,Grampians Central West WRRG,Ajax Rd,Daylesford,VIC,,-37.3342100000,144.1307000000,true
RRC/TS,Dunolly Transfer Station,F484,Grampians Central West WRRG,Maryborough Dunolly Rd,Dunolly,VIC,,-36.8795200000,143.7532100000,true
RRC/TS,Landsborough Transfer Station,F485,Grampians Central West WRRG,Ararat St &St Arnaud Rd,Landsborough,VIC,,-37.0153090000,143.1348390000,true
RRC/TS,Mt Egerton Transfer Station,F486,Grampians Central West WRRG,Cnr Ballan Egerton Rd & Yendon Egerton Rd,Mount Egerton,VIC,,-37.6337790000,144.1075140000,true
RRC/TS,Snake Valley Transfer Station,F487,Grampians Central West WRRG,Rikleys Rd,Snake Valley,VIC,,-37.6230740000,143.5752620000,true
RRC/TS,Talbot Transfer Station,F488,Grampians Central West WRRG,Rockyflat Rd,Talbot,VIC,,-37.1656138900,143.7135750000,true
RRC/TS,Trentham Transfer Station & Resale Centre,F489,Grampians Central West WRRG,Trentham Blackwood Road,Trentham,VIC,,-37.3965960000,144.3203370000,true
RRC/TS,Boinka Hard Waste Compound,F490,Loddon Mallee WRRG,Boinka Township,Boinka,VIC,,-35.2000670000,141.6053220000,true
RRC/TS,Cowangie Hard Waste Compound,F491,Loddon Mallee WRRG,,Cowangie,VIC,3506,-35.2427780000,141.3869440000,true
RRC/TS,Hattah Hard Waste Compound,F492,Loddon Mallee WRRG,,Hattah,VIC,,-34.7636520000,142.2768770000,true
RRC/TS,Lake Cullulleraine Waste Transfer Station,F493,Loddon Mallee WRRG,Sturt Highway,Cullulleraine,VIC,,-34.2776060000,141.5973310000,true
RRC/TS,Lindsay Point Transfer Station,F494,Loddon Mallee WRRG,,Lindsay Point,VIC,3500,-34.0943890000,141.0386940000,true
RRC/TS,Meringur Transfer Station,F495,Loddon Mallee WRRG,"Part Allotment 16, 17 & 18, Section  D",Meringur,VIC,,-34.3934420000,141.3388430000,true
RRC/TS,Mildura Transfer Station & Recovery Facility,F496,Loddon Mallee WRRG,"Ontario Av,",Mildura,VIC,,-34.1880610000,142.1370690000,true
RRC/TS,Mittyack Transfer Station,F497,Loddon Mallee WRRG,,Mittyack,VIC,,-35.1566040000,142.6577820000,true
RRC/TS,Nangiloc Transfer Station,F498,Loddon Mallee WRRG,Castle Crossing Rd,Nangiloc,VIC,,-34.4988100000,142.3587440000,true
RRC/TS,Tutye Hard Waste Compound,F499,Loddon Mallee WRRG,Tutye Township,Tutye,VIC,,-35.2221820000,141.4827160000,true
RRC/TS,Underbool Transfer Station,F500,Loddon Mallee WRRG,Malkin Ave,Underbool,VIC,,-35.1784260000,141.8070470000,true
RRC/TS,Walpeup Transfer Station,F501,Loddon Mallee WRRG,Allotment 17C & 17D,Walpeup,VIC,,-35.1423020000,142.0286510000,true
RRC/TS,Werrimull Transfer Station,F502,Loddon Mallee WRRG,King St,Werrimull,VIC,,-34.3890700000,141.5926300000,true
RRC/TS,Mornington Outlook Recovery Centre,F503,Metropolitan WRRG,29 Racecourse Rd,Mornington,VIC,,-38.2363250000,145.0658944440,true
RRC/TS,Mornington Transfer Station,F504,Metropolitan WRRG,134  Watt Rd (And Racecourse Rd),Mornington,VIC,,-38.2327630000,145.0619530000,true
RRC/TS,SKM  (formerly Mornington Peninsula Recyclers),F505,Metropolitan WRRG,16 Carbine Way,Mornington,VIC,,-38.2298555556,145.0675861110,true
RRC/TS,Tyabb Transfer Station,F506,Metropolitan WRRG,21 Mckirdys Rd,Tyabb East,VIC,,-38.2599330000,145.2196580000,true
RRC/TS,Beechworth Transfer Station,F507,North East WRRG,Cnr Radcliffe Rd & Diffey Rd,Beechworth,VIC,,-36.3737080000,146.6774480000,true
RRC/TS,Boorhaman Transfer Station,F508,North East WRRG,Cnr Naughtins Rd And Boorhaman Rd,Boorhaman,VIC,,-36.2330972200,146.2810556000,true
RRC/TS,Eldorado Transfer Station,F509,North East WRRG,Woolshed Rd,Eldorado,VIC,,-36.3181555600,146.5299361000,true
RRC/TS,Falls Creek Village Transfer Station,F510,North East WRRG,Bogon High Plains Rd,Falls Creek,VIC,3699,-36.8614800000,147.2766900000,true
RRC/TS,Glenrowan Transfer Station,F511,North East WRRG,Twamely Rd,Glenrowan,VIC,,-36.4651972200,146.2084278000,true
RRC/TS,Mansfield Resource Recovery Centre (formerly landfill ES411?),F512,North East WRRG,Monkey Gully Road,Mansfield,VIC,3722,-37.0930500000,146.0906000000,true
RRC/TS,Markwood Transfer Station,F513,North East WRRG,145 Forest Lane,Markwood,VIC,,-36.4678777800,146.4762167000,true
RRC/TS,Moyhu Transfer Station,F514,North East WRRG,567 Boggy Creek Rd,Moyhu,VIC,,-36.6357870333,146.3520598500,true
RRC/TS,Mt Beauty Transfer Station,F515,North East WRRG,Madison's Lane (Off Dam's Rd),Mt Beauty,VIC,,-36.7290520000,147.1747180000,true
RRC/TS,Mt Buller Transfer Station,F516,North East WRRG,Btwn Resort Gate & Resort Village,Mt Buller,VIC,3723,-37.1465400000,146.4526240000,true
RRC/TS,Porepunkah Transfer Station & Recycling Centre,F517,North East WRRG,Off Roberts Creek Road,Porepunkah,VIC,3740,-36.6939530000,146.9584000000,true
RRC/TS,Rutherglen Transfer Station,F518,North East WRRG,Cnr Great Southern Rd & Cornishtown Rd,Rutherglen,VIC,,-36.0734220000,146.4894220000,true
RRC/TS,Springhurst Transfer Station,F519,North East WRRG,Vipond Rd,Springhurst,VIC,,-36.2012090000,146.4780830000,true
RRC/TS,Tallangatta Transfer Station,F520,North East WRRG,Tallangatta Creek Rd (3Km From Murray Valley Hwy),Bullioh,VIC,,-36.2052750000,147.3375340000,true
RRC/TS,Wangaratta Transfer Station,F521,North East WRRG,Sandford Rd,Wangaratta,VIC,,-36.3694970000,146.2897080000,true
RRC/TS,Whitfield Transfer Station,F522,North East WRRG,5865 Mansfield Whitfield Rd,Whitfield,VIC,,-36.7724600000,146.4096900000,true
RRC/TS,Wodonga Transfer Station,F523,North East WRRG,29 Kane Rd,Wodonga,VIC,,-36.1170000000,146.9044000000,true
RRC/TS,Woods Point,F524,North East WRRG,,,VIC,,-37.5706722222,146.2556138890,true
RRC/TS,Austral Waste Group (operate in Vic as Statewide Waste),F525,Barwon South West WRRG,355 Koroit St,Warrnambool,VIC,3280,-38.3754305556,142.4642888890,true
RRC/TS,Balmoral Transfer Station,F526,Barwon South West WRRG,55 Natimuk-Hamilton Rd,Balmoral,VIC,,-37.2429830000,141.8388040000,true
RRC/TS,Barton's Waste Transfer Station,F527,Barwon South West WRRG,Lot 20 Harrington Road,Warrnambool,VIC,,-38.3676340000,142.4504200000,true
RRC/TS,Bessiebelle Transfer Station,F528,Barwon South West WRRG,Portland Road,Bessiebelle,VIC,,-38.1558600000,141.9567000000,true
RRC/TS,Branxholme Transfer Station,F529,Barwon South West WRRG,114 Branxholme - Byaduk Rd,Branxholme,VIC,,-37.8631630000,141.8100040000,true
RRC/TS,Caramut Transfer Station,F530,Barwon South West WRRG,Gibson Street,Caramut,VIC,,-37.9572680000,142.5256600000,true
RRC/TS,Cavendish Transfer Station & Resource Recovery,F531,Barwon South West WRRG,2478 Henty Hwy,Cavendish,VIC,,-37.5294140000,142.0340480000,true
RRC/TS,Coleraine Transfer Station,F532,Barwon South West WRRG,44 Robertson St,Coleraine,VIC,,-37.6036550000,141.7016210000,true
RRC/TS,Derrinallum Transfer Station & Resource Recovery,F533,Barwon South West WRRG,Heards Rd,Derrinallum,VIC,,-37.9697730000,143.1934040000,true
RRC/TS,Dunkeld Transfer Station,F534,Barwon South West WRRG,7 Bellicourt Rd,Dunkeld,VIC,,-37.6583960000,142.3488620000,true
RRC/TS,Glenthompson Transfer Station,F535,Barwon South West WRRG,Boundary Rd (off GT-Ararat Rd),Glenthompson,VIC,,-37.6225222200,142.5522583000,true
RRC/TS,Hawkesdale Resource Recovery Centre,F536,Barwon South West WRRG,Baird Street,Hawkesdale,VIC,,-38.1021080000,142.3281690000,true
RRC/TS,Heywood Resource Recovery Centre,F537,Barwon South West WRRG,Off Catons Flat Rd,Heywood,VIC,3304,-38.1380361100,141.5970611000,true
RRC/TS,Jarrads Road Resource Recovery Centre,F538,Barwon South West WRRG,Jarrads Road,Merino,VIC,3310,-37.7424166700,141.5227222200,true
RRC/TS,Macarthur Recycling Receival Facilities (at landfill site),F539,Barwon South West WRRG,Myamym - Macarthur Rd,Macarthur,VIC,,-38.0126050000,141.9752490000,true
RRC/TS,Mortlake Transfer Station & Resource Recovery Facility,F540,Barwon South West WRRG,Connewarren Lane,Mortlake,VIC,,-38.0689800000,142.7691710000,true
RRC/TS,Norm's Waste Disposal,F541,Barwon South West WRRG,47 Pioneer St,Hamilton,VIC,3300,-37.7456666667,142.0018500000,true
RRC/TS,Penshurst Transfer Station,F542,Barwon South West WRRG,Depot Rd,Penshurst,VIC,,-37.8565166700,142.3195028000,true
RRC/TS,Peterborough Transfer Station & Resource Recovery Facility,F543,Barwon South West WRRG,McGillivray Road,Peterborough,VIC,,-38.5938630000,142.8681190000,true
RRC/TS,Port Campbell Transfer Station & Resource Recovery,F544,Barwon South West WRRG,McRae St,Port Campbell,VIC,,-38.6195080000,143.0052370000,true
RRC/TS,Port Fairy Transfer Station & Resource Recovery,F545,Barwon South West WRRG,Thwaites Road,Port Fairy,VIC,,-38.3729950000,142.2041670000,true
RRC/TS,Simpson Transfer Station & Resource Recovery,F546,Barwon South West WRRG,Princetown Rd,Simpson,VIC,,-38.5009470000,143.2087120000,true
RRC/TS,Skipton Transfer Station & Resource Recovery,F547,Barwon South West WRRG,Beaufort Rd,Skipton,VIC,,-37.6827888900,143.3584056000,true
RRC/TS,Timboon Transfer Station & Resource Recovery,F548,Barwon South West WRRG,Timboon-Curdies Rd,Timboon,VIC,,-38.4950640000,142.9811300000,true
RRC/TS,Woolsthorpe Transfer Station & Resource Recovery,F549,Barwon South West WRRG,Mt Taurus Road,Woolsthorpe,VIC,,-38.2118510000,142.4193350000,true
RRC/TS,Woorndoo Transfer Station,F550,Barwon South West WRRG,Cameron Street,Woorndoo,VIC,,-37.8848880000,142.7995800000,true
RRC/TS,Banyule Waste Recovery Centre,F551,Metropolitan WRRG,Cnr Waterdale Rd & Banksia St,Bellfield,VIC,3081,-37.7565230000,145.0443390000,true
RRC/TS,Bayside Waste & Recycling Centre,F552,Metropolitan WRRG,144 Talinga Rd,Cheltenham,VIC,3192,-37.9623310000,145.0361170000,true
RRC/TS,Boroondara Transfer Station,F553,Metropolitan WRRG,648 Riversdale Rd,Camberwell,VIC,3124,-37.8348460000,145.0703560000,true
RRC/TS,Brimbank City Council Detox Centre,F554,Metropolitan WRRG,Stadium Drive,Keilor Park,VIC,,-37.7129330000,144.8499970000,true
RRC/TS,Brooklyn Landfill and Waste Recycling,F555,Metropolitan WRRG,Old Geelong Rd,Brooklyn,VIC,3012,-37.8177000000,144.8280000000,true
RRC/TS,Brunswick Waste Transfer Station (Whelan Kartaway),F556,Metropolitan WRRG,32 Kirkdale St,Brunswick East,VIC,3057,-37.7705150000,144.9823930000,true
RRC/TS,Campbellfield Recycling & Waste Transfer Station (at landfill site),F557,Metropolitan WRRG,Bolinda Rd,Campbellfield,VIC,3061,-37.6848580000,144.9672410000,true
RRC/TS,Cardinia Waste and Recyclers,F558,Metropolitan WRRG,Exchange Drive (off Kooweerup Rd),Pakenham,VIC,3810,-38.0969390000,145.4932190000,true
RRC/TS,CityWide Waste & Recycling Centre,F559,Metropolitan WRRG,437 Dynon Rd,Kensington,VIC,3031,-37.8028200000,144.9137490000,true
RRC/TS,Clarinda Landfill Transfer Station,F560,Metropolitan WRRG,Carroll Road,Clarinda,VIC,,-37.9330083333,145.0913361110,true
RRC/TS,Clayton Transfer Station (at regional landfill),F561,Metropolitan WRRG,654-718 Clayton Rd,Clayton,VIC,3169,-37.9532250000,145.1148560000,true
RRC/TS,Clifton Hill Recycling Drop-off Centre,F562,Metropolitan WRRG,Roseneath St,Clifton Hill,VIC,3068,-37.7935890000,145.0016890000,true
RRC/TS,Coldstream Recovery & Waste Transfer Station,F563,Metropolitan WRRG,200 Leonard Rd,Lilydale,VIC,3140,-37.7381500000,145.3965950000,true
RRC/TS,Cooper St Resource Recovery Centre (at landfill site),F564,Metropolitan WRRG,Cooper St,Epping,VIC,3076,-37.6468000000,144.9790000000,true
RRC/TS,Darebin Resource Recovery Centre,F565,Metropolitan WRRG,Kurnai Ave,Reservoir,VIC,3073,-37.7207780000,144.9817730000,true
RRC/TS,Healesville Recovery & Waste Transfer Station,F566,Metropolitan WRRG,371 Mt Riddell Rd,Healesville,VIC,3777,-37.6601910000,145.5494010000,true
RRC/TS,Kew Depot (Recycling Drop-off Only),F567,Metropolitan WRRG,Hutchinson Dr,Kew,VIC,3101,-37.7931470000,145.0288160000,true
RRC/TS,Kingston Waste Transfer Station,F568,Metropolitan WRRG,24-30 Fonceca St,Mordialloc,VIC,3195,-37.9901720000,145.1044600000,true
RRC/TS,Knox Transfer Station & Recycling Facility,F569,Metropolitan WRRG,251 George St (enter from High St Rd),Wantirna South,VIC,3152,-37.8793590000,145.2088520000,true
RRC/TS,Melton Recycling Centre,F570,Metropolitan WRRG,33 Ferris Rd,Cobblebank,VIC,3338,-37.7028880000,144.6101140000,true
RRC/TS,Monash Waste Transfer & Recycling Station,F571,Metropolitan WRRG,380 Ferntree Gully Rd,Notting Hill,VIC,3170,-37.9015300000,145.1404960000,true
RRC/TS,Moonee Valley Transfer Station,F572,Metropolitan WRRG,188 Holmes Rd,Moonee Ponds,VIC,3039,-37.7642390000,144.9029190000,true
RRC/TS,Nillumbik Recycling & Recovery Centre (Nillumbik Shire Depot),F573,Metropolitan WRRG,Yan Yean Rd,Plenty,VIC,3091,-37.6549460000,145.1260880000,true
RRC/TS,Port Phillip Transfer Station (the Depot),F574,Metropolitan WRRG,Cnr White & Boundary Street,South Melbourne,VIC,3205,-37.8280910000,144.9433760000,true
RRC/TS,Stonnington Waste Transfer Station,F575,Metropolitan WRRG,"293 Tooronga Road, Malvern - enter via Weir St",Glen Iris,VIC,,-37.8487690000,145.0430110000,true
RRC/TS,Sunbury Recycling & Waste Transfer Station (at landfill site),F576,Metropolitan WRRG,Lot 21 Riddel Rd,Sunbury,VIC,3429,-37.5511310000,144.6848660000,true
RRC/TS,Hampton Park Transfer Station,F577,Metropolitan WRRG,Hallam Rd,Hampton Park,VIC,3976,-38.0533800000,145.2671510000,true
RRC/TS,Wesburn Recovery & Waste Transfer Station,F578,Metropolitan WRRG,Old Warburton Rd,Wesburn,VIC,3799,-37.7748070000,145.6491310000,true
RRC/TS,Whitehorse Recycling & Waste Centre,F579,Metropolitan WRRG,Cnr Burwood Hwy & Morack Rd,Vermont South,VIC,3133,-37.8618820000,145.1956700000,true
RRC/TS,Wollert Transfer Station (at Wollert landfill),F580,Metropolitan WRRG,Bridge Inn Rd,Wollert,VIC,,-37.5866710000,145.0462050000,true
RRC/TS,Wyndham Transfer Station (at Wests Road Refuse Disposal Facility),F581,Metropolitan WRRG,45 Princes Hwy Wests Rd,Werribee,VIC,3030,-37.9390530000,144.5944100000,true
RRC/TS,Kilmany Transfer Station,F582,Gippsland WRRG,Velore Rd,Kilmany,VIC,,-38.1025660000,146.9260000000,true
RRC/TS,Rosedale Resource Recovery & Transfer Station,F583,Gippsland WRRG,Merton Vale rd,Rosedale,VIC,,-38.1878540000,146.8106890000,true
RRC/TS,Laharum Community Recycling Drop-off Facility,F584,Goulburn Valley WRRG,Wonwondah - Dadswells Bridge Rd (SW Corner Winfields Rd),Laharum,VIC,,-36.8734190000,142.3540000000,true
RRC/TS,Koonwarra Transfer Station Leongatha South,F607,Gippsland WRRG,Koonwarra-Inveloch Rd,Koonwarra,VIC,3954,,,true
RRC/TS,Benalla Resource Recovery Centre,F729,North East WRRG,"Old Farnley Rd,",Benalla,VIC,,-36.5115840000,145.9991230000,true
RRC/TS,Bonang Transfer Station,F733,Gippsland WRRG,16 Mailing Rd,Bonang,VIC,,,,true
RRC/TS,Campaspe  / RRC/TS DATA GROUP_182,F738,Goulburn Valley WRRG,,,VIC,,,,true
RRC/TS,Corangamite / RRC/TS DATA GROUP_159,F741,Barwon South West WRRG,,,VIC,,,,true
RRC/TS,Corangamite Regional Resource Recovery (at landfill),F742,Barwon South West WRRG,County Boundary West Road,Naroghid,VIC,,,,true
RRC/TS,Corryong Resource Recovery Centre,F743,North East WRRG,Sugarloaf Rd,Corryong,VIC,,-36.2206770000,147.8918600000,true
RRC/TS,Cowes Recycling Facility,F744,Gippsland WRRG,Dunsmore Rd,Cowes,VIC,,-38.4570500000,145.2481900000,true
RRC/TS,Cullulleraine Waste Transfer Station,F745,Loddon Mallee WRRG,Sturt Highway,Cullulleraine,VIC,,,,true
RRC/TS,Dinner Plain Resource Recovery Centre,F746,North East WRRG,,,VIC,,,,true
RRC/TS,Gray Street Depot,F755,Loddon Mallee WRRG,172-174 Gray Street,Swan Hill ,VIC,,,,true
RRC/TS,Maffra Resource Recopvery Centre,F757,Gippsland WRRG,Sellings Rd,Maffra ,VIC,3860,-37.9125590000,146.9861430000,true
RRC/TS,Mallacoota Transfer Station,F758,Gippsland WRRG,Betka Rd,Mallacoota,VIC,,,,true
RRC/TS,Manangatang Transfer Station,F760,Loddon Mallee WRRG,126 Moondah Rd,Manangatang,VIC,,,,true
RRC/TS,Mitchell / RRC/TS DATA GROUP_184,F761,Goulburn Valley WRRG,,,VIC,,,,true
RRC/TS,Moira / RRC/TS DATA GROUP_185,F762,Goulburn Valley WRRG,,,VIC,,,,true
RRC/TS,Mt Baw Baw Resource Recovery Centre,F763,Gippsland WRRG,Mt Baw Baw Tourist Road,Mt Baw Baw,VIC,,,,true
RRC/TS,Mt Hotham Resource Recovery Centre,F764,North East WRRG,,,VIC,,,,true
RRC/TS,Mt Zero (Laharum) Transfer Station & Resource Recovery,F765,Goulburn Valley WRRG,Cnr Curr & Everard Rds,Kyabram,VIC,,,,true
RRC/TS,Myrtleford Transfer Station,F766,North East WRRG,"6 Morrisons La,",Myrtleford,VIC,,-36.5431600000,146.7621950000,true
RRC/TS,Orbost Transfer Station,F778,Gippsland WRRG,351 Bonang Road,Orbost,VIC,,-37.6722720000,148.4729830000,true
RRC/TS,Piangil Transfer Station,F783,Loddon Mallee WRRG,246 Hayward Road,Piangil,VIC,,,,true
RRC/TS,Queenscliff / RRC/TS DATA GROUP_157,F786,Barwon South West WRRG,,,VIC,,,,true
RRC/TS,Southern Grampians  / RRC/TS DATA GROUP_162,F804,Barwon South West WRRG,,,VIC,,,,true
RRC/TS,Torquay Drop-off,F809,Barwon South West WRRG,,Torquay,VIC,,,,true
RRC/TS,Tubbut Trailer,F811,Gippsland WRRG,McKillops Road,Tubbut,VIC,,,,true
RRC/TS,Warrnambool  / RRC/TS DATA GROUP_163,F814,Barwon South West WRRG,,,VIC,,,,true
RRC/TS,Westvic Transfer Station,F816,Barwon South West WRRG,3 Hammond Place,Warnambool,VIC,,,,true
RRC/TS,Suez Environmental (formerly SITA) - Geelong,F900,Barwon South West WRRG,,,VIC,,,,true
RRC/TS,Yarrambat Recycling & Recovery Centre,F902,Metropolitan WRRG,290 Yan Yean Road,Plenty,VIC,3090,,,true
RRC/TS,Statewide Recycling Services Pty Ltd,F931,Barwon South West WRRG,355 Koroit St,Warrnambool,VIC,3280,-38.3753870000,142.4643220000,true
RRC/TS,MSC Seymour Works Depot,F1054,Goulburn Valley WRRG,"Behind Seymour Sports & Aquatic Centre, entry via Pollard Street through Chittick Park, Seymour",Seymour,VIC,,,,true
RRC/TS,Rokewood Transfer Station,F1055,Grampians Central West WRRG,141 Meadows Road,Rokewood,VIC,,-37.9122420000,143.7149960000,true
RRC/TS,Clayton Transfer Station (Cleanaway),F1056,Metropolitan WRRG,Deals Rd & Fraser Rd,Clayton South,VIC,3169,-37.9467080000,145.1202960000,true
RRC/TS,Alpine Shire - Bright Depot,F1057,North East WRRG,29 Churchill Avenue,Bright,VIC,3741,-36.7339120000,146.9754290000,true
